( ============================================================ )
( Date: 2025-06-02T17:14:07.565027 )
( Generated by: vpype-gscrib 1.1.1 )
( Vpype version: 1.14.0 )
( Gscrib version: 1.1.0 )
( Program zero: bottom-left )
( Number of layers: 1 )
( ------------------------------------------------------------ )
( @set header_gcode = None )
( @set footer_gcode = None )
( @set length_units = millimeters )
( @set time_units = seconds )
( @set coolant_type = off )
( @set head_type = standard )
( @set rack_type = manual )
( @set tool_type = marker )
( @set bed_type = off )
( @set fan_type = off )
( @set spin_mode = clockwise )
( @set power_mode = constant )
( @set power_level = 50.0 )
( @set spindle_rpm = 1000 )
( @set warmup_delay = 2.0 )
( @set tool_number = 1 )
( @set work_speed = 2500.0 mm/min )
( @set plunge_speed = 2500.0 mm/min )
( @set travel_speed = 4000.0 mm/min )
( @set retract_speed = 2100.0 mm/min )
( @set fan_speed = 255 )
( @set bed_temperature = 60 )
( @set hotend_temperature = 120 )
( @set work_z = 2.0 mm )
( @set plunge_z = 2.0 mm )
( @set safe_z = 5.0 mm )
( @set park_z = 6.0 mm )
( @set nozzle_diameter = 0.4 mm )
( @set filament_diameter = 1.75 mm )
( @set layer_height = 0.2 mm )
( @set retract_length = 1.5 mm )
( @set height_map_path = None )
( @set height_map_scale = 1.0 )
( @set height_map_tolerance = 0.1 mm )
( @set resolution = 0.1 mm )
( ============================================================ )
G90 ( Set distance mode, absolute )
G94 ( Set feed rate mode, units per minute )
G21 ( Set length units, millimeters )
G17 ( Select plane, XY )
( ------------------------------------------------------------ )
( Layer: 1 )
( ------------------------------------------------------------ )
G0 Z0 ( Park for service )
G0 X0 Y0 Z6
T1 M06 ( Tool change, manual )
M00 ( Pause program, forced )
G0 Z0
G1 X100.00007 Y1580.00086 F4000
G1 X100.00007 Y1580.00086 F4000
G1 Z2 F4000
G1 X100.00007 Y1580.00086 F18000
G1 X100.00007 Y1530.00082 F18000
G1 X150.00007 Y1530.00082 F18000
G1 X150.00007 Y1580.00086 F18000
G1 X100.00007 Y1580.00086 F18000
G1 X100.25004 Y1579.75085 F18000
G1 X100.25004 Y1530.25083 F18000
G1 X149.75009 Y1530.25083 F18000
G1 X149.75009 Y1579.75085 F18000
G1 X100.25004 Y1579.75085 F18000
G0 Z0
G1 X149.50009 Y1579.50085 F4000
G1 Z2 F4000
G1 X149.50009 Y1579.50085 F18000
G1 X100.50005 Y1579.50085 F18000
G1 X100.50005 Y1579.00086 F18000
G1 X149.50009 Y1579.00086 F18000
G1 X149.50009 Y1578.50085 F18000
G1 X100.50005 Y1578.50085 F18000
G1 X100.50005 Y1578.00084 F18000
G1 X149.50009 Y1578.00084 F18000
G1 X149.50009 Y1577.50086 F18000
G1 X100.50005 Y1577.50086 F18000
G1 X100.50005 Y1577.00085 F18000
G1 X149.50009 Y1577.00085 F18000
G1 X149.50009 Y1576.50084 F18000
G1 X100.50005 Y1576.50084 F18000
G1 X100.50005 Y1576.00086 F18000
G1 X149.50009 Y1576.00086 F18000
G1 X149.50009 Y1575.50085 F18000
G1 X100.50005 Y1575.50085 F18000
G1 X100.50005 Y1575.00086 F18000
G1 X149.50009 Y1575.00086 F18000
G1 X149.50009 Y1574.50085 F18000
G1 X100.50005 Y1574.50085 F18000
G1 X100.50005 Y1574.00084 F18000
G1 X149.50009 Y1574.00084 F18000
G1 X149.50009 Y1573.50086 F18000
G1 X100.50005 Y1573.50086 F18000
G1 X100.50005 Y1573.00085 F18000
G1 X149.50009 Y1573.00085 F18000
G1 X149.50009 Y1572.50084 F18000
G1 X100.50005 Y1572.50084 F18000
G1 X100.50005 Y1572.00086 F18000
G1 X149.50009 Y1572.00086 F18000
G1 X149.50009 Y1571.50085 F18000
G1 X100.50005 Y1571.50085 F18000
G1 X100.50005 Y1571.00084 F18000
G1 X149.50009 Y1571.00084 F18000
G1 X149.50009 Y1570.50085 F18000
G1 X100.50005 Y1570.50085 F18000
G1 X100.50005 Y1570.00084 F18000
G1 X149.50009 Y1570.00084 F18000
G1 X149.50009 Y1569.50083 F18000
G1 X100.50005 Y1569.50083 F18000
G1 X100.50005 Y1569.00085 F18000
G1 X149.50009 Y1569.00085 F18000
G1 X149.50009 Y1568.50084 F18000
G1 X100.50005 Y1568.50084 F18000
G1 X100.50005 Y1568.00086 F18000
G1 X149.50009 Y1568.00086 F18000
G1 X149.50009 Y1567.50085 F18000
G1 X100.50005 Y1567.50085 F18000
G1 X100.50005 Y1567.00084 F18000
G1 X149.50009 Y1567.00084 F18000
G1 X149.50009 Y1566.50085 F18000
G1 X100.50005 Y1566.50085 F18000
G1 X100.50005 Y1566.00085 F18000
G1 X149.50009 Y1566.00085 F18000
G1 X149.50009 Y1565.50084 F18000
G1 X100.50005 Y1565.50084 F18000
G1 X100.50005 Y1565.00085 F18000
G1 X149.50009 Y1565.00085 F18000
G1 X149.50009 Y1564.50084 F18000
G1 X100.50005 Y1564.50084 F18000
G1 X100.50005 Y1564.00083 F18000
G1 X149.50009 Y1564.00083 F18000
G1 X149.50009 Y1563.50085 F18000
G1 X100.50005 Y1563.50085 F18000
G1 X100.50005 Y1563.00084 F18000
G1 X149.50009 Y1563.00084 F18000
G1 X149.50009 Y1562.50086 F18000
G1 X100.50005 Y1562.50086 F18000
G1 X100.50005 Y1562.00085 F18000
G1 X149.50009 Y1562.00085 F18000
G1 X149.50009 Y1561.50084 F18000
G1 X100.50005 Y1561.50084 F18000
G1 X100.50005 Y1561.00085 F18000
G1 X149.50009 Y1561.00085 F18000
G1 X149.50009 Y1560.50084 F18000
G1 X100.50005 Y1560.50084 F18000
G1 X100.50005 Y1560.00083 F18000
G1 X149.50009 Y1560.00083 F18000
G1 X149.50009 Y1559.50085 F18000
G1 X100.50005 Y1559.50085 F18000
G1 X100.50005 Y1559.00084 F18000
G1 X149.50009 Y1559.00084 F18000
G1 X149.50009 Y1558.50083 F18000
G1 X100.50005 Y1558.50083 F18000
G1 X100.50005 Y1558.00085 F18000
G1 X149.50009 Y1558.00085 F18000
G1 X149.50009 Y1557.50084 F18000
G1 X100.50005 Y1557.50084 F18000
G1 X100.50005 Y1557.00085 F18000
G1 X149.50009 Y1557.00085 F18000
G1 X149.50009 Y1556.50084 F18000
G1 X100.50005 Y1556.50084 F18000
G1 X100.50005 Y1556.00083 F18000
G1 X149.50009 Y1556.00083 F18000
G1 X149.50009 Y1555.50085 F18000
G1 X100.50005 Y1555.50085 F18000
G1 X100.50005 Y1555.00084 F18000
G1 X149.50009 Y1555.00084 F18000
G1 X149.50009 Y1554.50083 F18000
G1 X100.50005 Y1554.50083 F18000
G1 X100.50005 Y1554.00085 F18000
G1 X149.50009 Y1554.00085 F18000
G1 X149.50009 Y1553.50084 F18000
G1 X100.50005 Y1553.50084 F18000
G1 X100.50005 Y1553.00083 F18000
G1 X149.50009 Y1553.00083 F18000
G1 X149.50009 Y1552.50084 F18000
G1 X100.50005 Y1552.50084 F18000
G1 X100.50005 Y1552.00083 F18000
G1 X149.50009 Y1552.00083 F18000
G1 X149.50009 Y1551.50085 F18000
G1 X100.50005 Y1551.50085 F18000
G1 X100.50005 Y1551.00084 F18000
G1 X149.50009 Y1551.00084 F18000
G1 X149.50009 Y1550.50083 F18000
G1 X100.50005 Y1550.50083 F18000
G1 X100.50005 Y1550.00085 F18000
G1 X149.50009 Y1550.00085 F18000
G1 X149.50009 Y1549.50084 F18000
G1 X100.50005 Y1549.50084 F18000
G1 X100.50005 Y1549.00083 F18000
G1 X149.50009 Y1549.00083 F18000
G1 X149.50009 Y1548.50084 F18000
G1 X100.50005 Y1548.50084 F18000
G1 X100.50005 Y1548.00083 F18000
G1 X149.50009 Y1548.00083 F18000
G1 X149.50009 Y1547.50082 F18000
G1 X100.50005 Y1547.50082 F18000
G1 X100.50005 Y1547.00084 F18000
G1 X149.50009 Y1547.00084 F18000
G1 X149.50009 Y1546.50083 F18000
G1 X100.50005 Y1546.50083 F18000
G1 X100.50005 Y1546.00085 F18000
G1 X149.50009 Y1546.00085 F18000
G1 X149.50009 Y1545.50084 F18000
G1 X100.50005 Y1545.50084 F18000
G1 X100.50005 Y1545.00083 F18000
G1 X149.50009 Y1545.00083 F18000
G1 X149.50009 Y1544.50084 F18000
G1 X100.50005 Y1544.50084 F18000
G1 X100.50005 Y1544.00083 F18000
G1 X149.50009 Y1544.00083 F18000
G1 X149.50009 Y1543.50082 F18000
G1 X100.50005 Y1543.50082 F18000
G1 X100.50005 Y1543.00084 F18000
G1 X149.50009 Y1543.00084 F18000
G1 X149.50009 Y1542.50083 F18000
G1 X100.50005 Y1542.50083 F18000
G1 X100.50005 Y1542.00082 F18000
G1 X149.50009 Y1542.00082 F18000
G1 X149.50009 Y1541.50084 F18000
G1 X100.50005 Y1541.50084 F18000
G1 X100.50005 Y1541.00083 F18000
G1 X149.50009 Y1541.00083 F18000
G1 X149.50009 Y1540.50082 F18000
G1 X100.50005 Y1540.50082 F18000
G1 X100.50005 Y1540.00084 F18000
G1 X149.50009 Y1540.00084 F18000
G1 X149.50009 Y1539.50083 F18000
G1 X100.50005 Y1539.50083 F18000
G1 X100.50005 Y1539.00084 F18000
G1 X149.50009 Y1539.00084 F18000
G1 X149.50009 Y1538.50083 F18000
G1 X100.50005 Y1538.50083 F18000
G1 X100.50005 Y1538.00082 F18000
G1 X149.50009 Y1538.00082 F18000
G1 X149.50009 Y1537.50084 F18000
G1 X100.50005 Y1537.50084 F18000
G1 X100.50005 Y1537.00083 F18000
G1 X149.50009 Y1537.00083 F18000
G1 X149.50009 Y1536.50082 F18000
G1 X100.50005 Y1536.50082 F18000
G1 X100.50005 Y1536.00084 F18000
G1 X149.50009 Y1536.00084 F18000
G1 X149.50009 Y1535.50083 F18000
G1 X100.50005 Y1535.50083 F18000
G1 X100.50005 Y1535.00082 F18000
G1 X149.50009 Y1535.00082 F18000
G1 X149.50009 Y1534.50083 F18000
G1 X100.50005 Y1534.50083 F18000
G1 X100.50005 Y1534.00082 F18000
G1 X149.50009 Y1534.00082 F18000
G1 X149.50009 Y1533.50084 F18000
G1 X100.50005 Y1533.50084 F18000
G1 X100.50005 Y1533.00083 F18000
G1 X149.50009 Y1533.00083 F18000
G1 X149.50009 Y1532.50082 F18000
G1 X100.50005 Y1532.50082 F18000
G1 X100.50005 Y1532.00084 F18000
G1 X149.50009 Y1532.00084 F18000
G1 X149.50009 Y1531.50083 F18000
G1 X100.50005 Y1531.50083 F18000
G1 X100.50005 Y1531.00082 F18000
G1 X149.50009 Y1531.00082 F18000
G1 X149.50009 Y1530.50083 F18000
G1 X100.50005 Y1530.50083 F18000
G0 Z0
G1 X88.5627 Y550.0003 F4000
G1 Z2 F4000
G1 X88.5627 Y550.0003 F18000
G1 X88.59271 Y494.03716 F18000
G1 X88.17059 Y494.03716 F18000
G1 X88.06627 Y432.03059 F18000
G0 Z0
G1 X88.81625 Y432.03059 F4000
G1 Z2 F4000
G1 X88.81625 Y432.03059 F18000
G1 X88.92058 Y494.03716 F18000
G0 Z0
G1 X87.42058 Y494.03716 F4000
G1 Z2 F4000
G1 X87.42058 Y494.03716 F18000
G1 X87.31625 Y432.03059 F18000
G1 X87.66627 Y432.03059 F18000
G1 X87.66627 Y411.18245 F18000
G1 X87.85846 Y411.18245 F18000
G1 X87.85846 Y381.89586 F18000
G0 Z0
G1 X87.10847 Y381.89586 F4000
G1 Z2 F4000
G1 X87.10847 Y381.89586 F18000
G1 X87.10847 Y411.18245 F18000
G0 Z0
G1 X86.35846 Y411.18245 F4000
G1 Z2 F4000
G1 X86.35846 Y411.18245 F18000
G1 X86.33848 Y300.00016 F18000
G0 Z0
G1 X82.69848 Y300.00016 F4000
G1 Z2 F4000
G1 X82.69848 Y300.00016 F18000
G1 X82.60846 Y411.18245 F18000
G1 X82.36626 Y411.18245 F18000
G1 X82.36626 Y432.03059 F18000
G1 X82.06625 Y432.03059 F18000
G1 X82.17058 Y494.03716 F18000
G0 Z0
G1 X83.67058 Y494.03716 F4000
G1 Z2 F4000
G1 X83.67058 Y494.03716 F18000
G1 X83.56626 Y432.03059 F18000
G0 Z0
G1 X84.31627 Y432.03059 F4000
G1 Z2 F4000
G1 X84.31627 Y432.03059 F18000
G1 X84.42057 Y494.03716 F18000
G0 Z0
G1 X85.17059 Y494.03716 F4000
G1 Z2 F4000
G1 X85.17059 Y494.03716 F18000
G1 X85.17059 Y434.62753 F18000
G1 X85.06626 Y434.62753 F18000
G1 X85.01625 Y432.03059 F18000
G1 X85.01625 Y411.18245 F18000
G1 X84.85846 Y411.18245 F18000
G1 X84.85846 Y381.89586 F18000
G0 Z0
G1 X85.60847 Y381.89586 F4000
G1 Z2 F4000
G1 X85.60847 Y381.89586 F18000
G1 X85.60847 Y411.18245 F18000
G0 Z0
G1 X84.10847 Y411.18245 F4000
G1 Z2 F4000
G1 X84.10847 Y411.18245 F18000
G1 X84.10847 Y381.89586 F18000
G0 Z0
G1 X83.35848 Y381.89586 F4000
G1 Z2 F4000
G1 X83.35848 Y381.89586 F18000
G1 X83.35848 Y411.18245 F18000
G0 Z0
G1 X81.85848 Y411.18245 F4000
G1 Z2 F4000
G1 X81.85848 Y411.18245 F18000
G1 X81.85848 Y381.89586 F18000
G0 Z0
G1 X81.10846 Y381.89586 F4000
G1 Z2 F4000
G1 X81.10846 Y381.89586 F18000
G1 X81.10846 Y411.18245 F18000
G0 Z0
G1 X80.35847 Y411.18245 F4000
G1 Z2 F4000
G1 X80.35847 Y411.18245 F18000
G1 X80.35847 Y381.89586 F18000
G0 Z0
G1 X79.60846 Y381.89586 F4000
G1 Z2 F4000
G1 X79.60846 Y381.89586 F18000
G1 X79.71625 Y432.03059 F18000
G1 X79.81626 Y434.62753 F18000
G1 X79.92059 Y434.62753 F18000
G1 X79.92059 Y494.03716 F18000
G0 Z0
G1 X79.17057 Y494.03716 F4000
G1 Z2 F4000
G1 X79.17057 Y494.03716 F18000
G1 X79.06625 Y432.03059 F18000
G0 Z0
G1 X82.81627 Y432.03059 F4000
G1 Z2 F4000
G1 X82.81627 Y432.03059 F18000
G1 X82.92057 Y494.03716 F18000
G1 X83.2927 Y494.03716 F18000
G1 X83.2927 Y528.85119 F18000
G0 Z0
G1 X75.34268 Y528.85119 F4000
G1 Z2 F4000
G1 X75.34268 Y528.85119 F18000
G1 X75.42058 Y434.62753 F18000
G1 X75.31625 Y434.62753 F18000
G1 X75.31625 Y432.03059 F18000
G0 Z0
G1 X76.06627 Y432.03059 F4000
G1 Z2 F4000
G1 X76.06627 Y432.03059 F18000
G1 X76.17057 Y494.03716 F18000
G0 Z0
G1 X76.92058 Y494.03716 F4000
G1 Z2 F4000
G1 X76.92058 Y494.03716 F18000
G1 X76.81626 Y432.03059 F18000
G1 X77.06626 Y432.03059 F18000
G1 X77.06626 Y411.18245 F18000
G1 X77.35847 Y411.18245 F18000
G1 X77.35847 Y381.89586 F18000
G0 Z0
G1 X78.10846 Y381.89586 F4000
G1 Z2 F4000
G1 X78.10846 Y381.89586 F18000
G1 X78.10846 Y411.18245 F18000
G0 Z0
G1 X78.85847 Y411.18245 F4000
G1 Z2 F4000
G1 X78.85847 Y411.18245 F18000
G1 X78.85847 Y381.89586 F18000
G1 X79.05847 Y381.89586 F18000
G1 X79.05847 Y300.00016 F18000
G0 Z0
G1 X75.41846 Y300.00016 F4000
G1 Z2 F4000
G1 X75.41846 Y300.00016 F18000
G1 X75.41846 Y381.89586 F18000
G1 X75.10848 Y381.89586 F18000
G1 X75.10848 Y411.18245 F18000
G0 Z0
G1 X75.85846 Y411.18245 F4000
G1 Z2 F4000
G1 X75.85846 Y411.18245 F18000
G1 X75.85846 Y381.89586 F18000
G0 Z0
G1 X76.60845 Y381.89586 F4000
G1 Z2 F4000
G1 X76.60845 Y381.89586 F18000
G1 X76.60845 Y411.18245 F18000
G0 Z0
G1 X73.60847 Y411.18245 F4000
G1 Z2 F4000
G1 X73.60847 Y411.18245 F18000
G1 X73.60847 Y381.89586 F18000
G0 Z0
G1 X74.35846 Y381.89586 F4000
G1 Z2 F4000
G1 X74.35846 Y381.89586 F18000
G1 X74.41625 Y432.03059 F18000
G1 X74.56626 Y432.03059 F18000
G1 X74.56626 Y434.62753 F18000
G1 X74.67056 Y434.62753 F18000
G1 X74.67056 Y494.03716 F18000
G0 Z0
G1 X73.92058 Y494.03716 F4000
G1 Z2 F4000
G1 X73.92058 Y494.03716 F18000
G1 X73.81625 Y432.03059 F18000
G0 Z0
G1 X73.06626 Y432.03059 F4000
G1 Z2 F4000
G1 X73.06626 Y432.03059 F18000
G1 X73.17056 Y494.03716 F18000
G0 Z0
G1 X71.67056 Y494.03716 F4000
G1 Z2 F4000
G1 X71.67056 Y494.03716 F18000
G1 X71.56626 Y432.03059 F18000
G1 X71.76626 Y432.03059 F18000
G1 X71.76626 Y411.18245 F18000
G1 X72.10847 Y411.18245 F18000
G1 X72.10847 Y381.89586 F18000
G1 X71.77845 Y381.89586 F18000
G1 X71.77845 Y300.00016 F18000
G0 Z0
G1 X68.13845 Y300.00016 F4000
G1 Z2 F4000
G1 X68.13845 Y300.00016 F18000
G1 X68.13845 Y381.89586 F18000
G1 X68.35845 Y381.89586 F18000
G1 X68.35845 Y411.18245 F18000
G0 Z0
G1 X65.35847 Y411.18245 F4000
G1 Z2 F4000
G1 X65.35847 Y411.18245 F18000
G1 X65.35847 Y381.89586 F18000
G0 Z0
G1 X63.85847 Y381.89586 F4000
G1 Z2 F4000
G1 X63.85847 Y381.89586 F18000
G1 X63.81624 Y432.03059 F18000
G1 X63.31625 Y432.03059 F18000
G1 X63.42055 Y494.03716 F18000
G0 Z0
G1 X64.17057 Y494.03716 F4000
G1 Z2 F4000
G1 X64.17057 Y494.03716 F18000
G1 X64.06624 Y432.03059 F18000
G0 Z0
G1 X62.56624 Y432.03059 F4000
G1 Z2 F4000
G1 X62.56624 Y432.03059 F18000
G1 X62.67057 Y494.03716 F18000
G0 Z0
G1 X61.17056 Y494.03716 F4000
G1 Z2 F4000
G1 X61.17056 Y494.03716 F18000
G1 X61.17056 Y434.62753 F18000
G1 X61.06624 Y434.62753 F18000
G1 X61.16625 Y411.18245 F18000
G1 X60.85846 Y411.18245 F18000
G1 X60.85846 Y300.00016 F18000
G0 Z0
G1 X64.49847 Y300.00016 F4000
G1 Z2 F4000
G1 X64.49847 Y300.00016 F18000
G1 X64.60845 Y411.18245 F18000
G0 Z0
G1 X63.10845 Y411.18245 F4000
G1 Z2 F4000
G1 X63.10845 Y411.18245 F18000
G1 X63.10845 Y381.89586 F18000
G0 Z0
G1 X62.35846 Y381.89586 F4000
G1 Z2 F4000
G1 X62.35846 Y381.89586 F18000
G1 X62.35846 Y411.18245 F18000
G0 Z0
G1 X61.60845 Y411.18245 F4000
G1 Z2 F4000
G1 X61.60845 Y411.18245 F18000
G1 X61.60845 Y381.89586 F18000
G0 Z0
G1 X59.98465 Y381.89586 F4000
G1 Z2 F4000
G1 X59.98465 Y381.89586 F18000
G1 X59.98465 Y300.00016 F18000
G0 Z0
G1 X59.23463 Y300.00016 F4000
G1 Z2 F4000
G1 X59.23463 Y300.00016 F18000
G1 X59.23463 Y381.89586 F18000
G0 Z0
G1 X57.73463 Y381.89586 F4000
G1 Z2 F4000
G1 X57.73463 Y381.89586 F18000
G1 X57.73463 Y300.00016 F18000
G0 Z0
G1 X58.48464 Y300.00016 F4000
G1 Z2 F4000
G1 X58.48464 Y300.00016 F18000
G1 X58.48464 Y381.89586 F18000
G1 X58.63464 Y381.89586 F18000
G1 X58.63464 Y411.18245 F18000
G1 X58.51623 Y411.18245 F18000
G1 X58.51623 Y432.03059 F18000
G1 X58.06626 Y432.03059 F18000
G1 X58.06626 Y434.62753 F18000
G1 X58.19204 Y434.62753 F18000
G1 X58.19204 Y550.0003 F18000
G0 Z0
G1 X57.44205 Y550.0003 F4000
G1 Z2 F4000
G1 X57.44205 Y550.0003 F18000
G1 X57.44205 Y434.62753 F18000
G1 X57.31624 Y434.62753 F18000
G1 X57.31624 Y432.03059 F18000
G0 Z0
G1 X59.56623 Y434.62753 F4000
G1 Z2 F4000
G1 X59.56623 Y434.62753 F18000
G1 X59.56623 Y432.03059 F18000
G0 Z0
G1 X58.81625 Y432.03059 F4000
G1 Z2 F4000
G1 X58.81625 Y432.03059 F18000
G1 X58.81625 Y434.62753 F18000
G1 X58.94205 Y434.62753 F18000
G1 X58.94205 Y494.03716 F18000
G0 Z0
G1 X50.81945 Y494.03716 F4000
G1 Z2 F4000
G1 X50.81945 Y494.03716 F18000
G1 X50.81945 Y542.79458 F18000
G0 Z0
G1 X50.17945 Y542.79458 F4000
G1 Z2 F4000
G1 X50.17945 Y542.79458 F18000
G1 X50.17945 Y550.0003 F18000
G0 Z0
G1 X47.52946 Y550.0003 F4000
G1 Z2 F4000
G1 X47.52946 Y550.0003 F18000
G1 X47.52946 Y542.79458 F18000
G1 X47.17944 Y542.79458 F18000
G1 X47.17944 Y494.03716 F18000
G1 X46.75494 Y494.03716 F18000
G1 X46.75494 Y487.31484 F18000
G1 X47.15497 Y487.31484 F18000
G1 X47.15497 Y434.62753 F18000
G0 Z0
G1 X40.12385 Y434.62753 F4000
G1 Z2 F4000
G1 X40.12385 Y434.62753 F18000
G1 X40.12385 Y431.56313 F18000
G1 X39.97385 Y431.56313 F18000
G1 X39.97385 Y411.18245 F18000
G0 Z0
G1 X44.98464 Y381.89586 F4000
G1 Z2 F4000
G1 X44.98464 Y381.89586 F18000
G1 X44.98464 Y300.00016 F18000
G0 Z0
G1 X44.23463 Y300.00016 F4000
G1 Z2 F4000
G1 X44.23463 Y300.00016 F18000
G1 X44.23463 Y434.62753 F18000
G1 X44.50495 Y434.62753 F18000
G1 X44.50495 Y487.31484 F18000
G0 Z0
G1 X45.15495 Y487.31484 F4000
G1 Z2 F4000
G1 X45.15495 Y487.31484 F18000
G1 X45.15495 Y494.03716 F18000
G0 Z0
G1 X43.55496 Y487.31484 F4000
G1 Z2 F4000
G1 X43.55496 Y487.31484 F18000
G1 X43.53946 Y542.79458 F18000
G0 Z0
G1 X44.87944 Y542.79458 F4000
G1 Z2 F4000
G1 X44.87944 Y542.79458 F18000
G1 X44.87944 Y550.0003 F18000
G0 Z0
G1 X42.22945 Y550.0003 F4000
G1 Z2 F4000
G1 X42.22945 Y550.0003 F18000
G1 X42.22945 Y542.79458 F18000
G0 Z0
G1 X36.92945 Y542.79458 F4000
G1 Z2 F4000
G1 X36.92945 Y542.79458 F18000
G1 X36.92945 Y550.0003 F18000
G0 Z0
G1 X39.57944 Y550.0003 F4000
G1 Z2 F4000
G1 X39.57944 Y550.0003 F18000
G1 X39.57944 Y542.79458 F18000
G1 X39.89945 Y542.79458 F18000
G1 X39.89945 Y494.03716 F18000
G1 X40.35496 Y494.03716 F18000
G1 X40.35496 Y487.31484 F18000
G0 Z0
G1 X37.15495 Y487.31484 F4000
G1 Z2 F4000
G1 X37.15495 Y487.31484 F18000
G1 X37.15495 Y494.03716 F18000
G0 Z0
G1 X36.25945 Y494.03716 F4000
G1 Z2 F4000
G1 X36.25945 Y494.03716 F18000
G1 X36.25945 Y542.79458 F18000
G0 Z0
G1 X34.27944 Y542.79458 F4000
G1 Z2 F4000
G1 X34.27944 Y542.79458 F18000
G1 X34.27944 Y550.0003 F18000
G0 Z0
G1 X31.62945 Y550.0003 F4000
G1 Z2 F4000
G1 X31.62945 Y550.0003 F18000
G1 X31.62945 Y542.79458 F18000
G0 Z0
G1 X32.61944 Y542.79458 F4000
G1 Z2 F4000
G1 X32.61944 Y542.79458 F18000
G1 X32.61944 Y494.03716 F18000
G1 X32.35493 Y494.03716 F18000
G1 X32.35493 Y487.31484 F18000
G0 Z0
G1 X31.25496 Y487.31484 F4000
G1 Z2 F4000
G1 X31.25496 Y487.31484 F18000
G1 X31.25496 Y434.62753 F18000
G0 Z0
G1 X30.52383 Y434.62753 F4000
G1 Z2 F4000
G1 X30.52383 Y434.62753 F18000
G1 X30.52383 Y431.56313 F18000
G1 X30.22385 Y431.56313 F18000
G1 X30.22385 Y411.18245 F18000
G0 Z0
G1 X30.97384 Y411.18245 F4000
G1 Z2 F4000
G1 X30.97384 Y411.18245 F18000
G1 X30.97384 Y431.56313 F18000
G0 Z0
G1 X29.47383 Y431.56313 F4000
G1 Z2 F4000
G1 X29.47383 Y431.56313 F18000
G1 X29.47383 Y411.18245 F18000
G0 Z0
G1 X27.97383 Y411.18245 F4000
G1 Z2 F4000
G1 X27.97383 Y411.18245 F18000
G1 X27.97383 Y431.56313 F18000
G0 Z0
G1 X26.47383 Y431.56313 F4000
G1 Z2 F4000
G1 X26.47383 Y431.56313 F18000
G1 X26.47383 Y411.18245 F18000
G0 Z0
G1 X27.22384 Y411.18245 F4000
G1 Z2 F4000
G1 X27.22384 Y411.18245 F18000
G1 X27.32383 Y434.62753 F18000
G0 Z0
G1 X23.2 Y434.62753 F4000
G1 Z2 F4000
G1 X23.2 Y434.62753 F18000
G1 X23.2 Y431.56313 F18000
G0 Z0
G1 X21.60001 Y431.56313 F4000
G1 Z2 F4000
G1 X21.60001 Y431.56313 F18000
G1 X21.60001 Y434.62753 F18000
G0 Z0
G1 X22.65001 Y434.62753 F4000
G1 Z2 F4000
G1 X22.65001 Y434.62753 F18000
G1 X22.65001 Y550.0003 F18000
G0 Z0
G1 X20.00002 Y550.0003 F4000
G1 Z2 F4000
G1 X20.00002 Y550.0003 F18000
G1 X20.00002 Y300.00016 F18000
G0 Z0
G1 X25.11384 Y300.00016 F4000
G1 Z2 F4000
G1 X25.11384 Y300.00016 F18000
G1 X25.11384 Y411.18245 F18000
G0 Z0
G1 X25.72384 Y411.18245 F4000
G1 Z2 F4000
G1 X25.72384 Y411.18245 F18000
G1 X25.72384 Y434.62753 F18000
G1 X25.95495 Y434.62753 F18000
G1 X25.95495 Y494.03716 F18000
G0 Z0
G1 X25.3 Y494.03716 F4000
G1 Z2 F4000
G1 X25.3 Y494.03716 F18000
G1 X25.3 Y550.0003 F18000
G0 Z0
G1 X28.97943 Y550.0003 F4000
G1 Z2 F4000
G1 X28.97943 Y550.0003 F18000
G1 X28.97943 Y494.03716 F18000
G1 X29.15496 Y494.03716 F18000
G1 X29.15496 Y487.31484 F18000
G0 Z0
G1 X30.75495 Y487.31484 F4000
G1 Z2 F4000
G1 X30.75495 Y487.31484 F18000
G1 X30.75495 Y494.03716 F18000
G0 Z0
G1 X27.55494 Y494.03716 F4000
G1 Z2 F4000
G1 X27.55494 Y494.03716 F18000
G1 X27.55494 Y487.31484 F18000
G0 Z0
G1 X28.60494 Y487.31484 F4000
G1 Z2 F4000
G1 X28.60494 Y487.31484 F18000
G1 X28.60494 Y434.62753 F18000
G1 X28.92384 Y434.62753 F18000
G1 X28.92384 Y431.56313 F18000
G1 X28.72384 Y431.56313 F18000
G1 X28.75382 Y359.4449 F18000
G0 Z0
G1 X27.76383 Y359.4449 F4000
G1 Z2 F4000
G1 X27.76383 Y359.4449 F18000
G1 X27.76383 Y300.00016 F18000
G0 Z0
G1 X30.41384 Y300.00016 F4000
G1 Z2 F4000
G1 X30.41384 Y300.00016 F18000
G1 X30.41384 Y359.4449 F18000
G0 Z0
G1 X32.39383 Y359.4449 F4000
G1 Z2 F4000
G1 X32.39383 Y359.4449 F18000
G1 X32.47384 Y431.56313 F18000
G0 Z0
G1 X33.22383 Y431.56313 F4000
G1 Z2 F4000
G1 X33.22383 Y431.56313 F18000
G1 X33.22383 Y411.18245 F18000
G0 Z0
G1 X31.72385 Y411.18245 F4000
G1 Z2 F4000
G1 X31.72385 Y411.18245 F18000
G1 X31.72385 Y431.56313 F18000
G1 X32.12385 Y431.56313 F18000
G1 X32.12385 Y434.62753 F18000
G0 Z0
G1 X35.32385 Y434.62753 F4000
G1 Z2 F4000
G1 X35.32385 Y434.62753 F18000
G1 X35.32385 Y431.56313 F18000
G1 X35.47384 Y431.56313 F18000
G1 X35.47384 Y411.18245 F18000
G0 Z0
G1 X36.97385 Y411.18245 F4000
G1 Z2 F4000
G1 X36.97385 Y411.18245 F18000
G1 X36.92384 Y434.62753 F18000
G1 X36.55496 Y434.62753 F18000
G1 X36.55496 Y487.31484 F18000
G0 Z0
G1 X35.55494 Y487.31484 F4000
G1 Z2 F4000
G1 X35.55494 Y487.31484 F18000
G1 X35.55494 Y494.03716 F18000
G0 Z0
G1 X33.95495 Y494.03716 F4000
G1 Z2 F4000
G1 X33.95495 Y494.03716 F18000
G1 X33.90494 Y434.62753 F18000
G1 X33.72384 Y434.62753 F18000
G1 X33.72384 Y431.56313 F18000
G1 X33.97384 Y431.56313 F18000
G1 X33.97384 Y411.18245 F18000
G0 Z0
G1 X34.72383 Y411.18245 F4000
G1 Z2 F4000
G1 X34.72383 Y411.18245 F18000
G1 X34.72383 Y431.56313 F18000
G0 Z0
G1 X36.22383 Y431.56313 F4000
G1 Z2 F4000
G1 X36.22383 Y431.56313 F18000
G1 X36.22383 Y411.18245 F18000
G1 X36.03384 Y411.18245 F18000
G1 X36.03384 Y359.4449 F18000
G1 X35.71385 Y359.4449 F18000
G1 X35.71385 Y300.00016 F18000
G0 Z0
G1 X33.06383 Y300.00016 F4000
G1 Z2 F4000
G1 X33.06383 Y300.00016 F18000
G1 X33.06383 Y359.4449 F18000
G0 Z0
G1 X38.36384 Y359.4449 F4000
G1 Z2 F4000
G1 X38.36384 Y359.4449 F18000
G1 X38.36384 Y300.00016 F18000
G0 Z0
G1 X41.01385 Y300.00016 F4000
G1 Z2 F4000
G1 X41.01385 Y300.00016 F18000
G1 X41.01385 Y359.4449 F18000
G0 Z0
G1 X39.67384 Y359.4449 F4000
G1 Z2 F4000
G1 X39.67384 Y359.4449 F18000
G1 X39.67384 Y411.18245 F18000
G1 X39.22384 Y411.18245 F18000
G1 X39.22384 Y431.56313 F18000
G0 Z0
G1 X37.72384 Y431.56313 F4000
G1 Z2 F4000
G1 X37.72384 Y431.56313 F18000
G1 X37.72384 Y411.18245 F18000
G0 Z0
G1 X38.47385 Y411.18245 F4000
G1 Z2 F4000
G1 X38.47385 Y411.18245 F18000
G1 X38.52383 Y434.62753 F18000
G0 Z0
G1 X39.20495 Y434.62753 F4000
G1 Z2 F4000
G1 X39.20495 Y434.62753 F18000
G1 X39.20495 Y487.31484 F18000
G1 X38.75494 Y487.31484 F18000
G1 X38.75494 Y494.03716 F18000
G0 Z0
G1 X41.95495 Y494.03716 F4000
G1 Z2 F4000
G1 X41.95495 Y494.03716 F18000
G1 X41.85496 Y434.62753 F18000
G1 X41.72384 Y434.62753 F18000
G1 X41.72384 Y431.56313 F18000
G1 X41.47383 Y431.56313 F18000
G1 X41.47383 Y411.18245 F18000
G0 Z0
G1 X40.72384 Y411.18245 F4000
G1 Z2 F4000
G1 X40.72384 Y411.18245 F18000
G1 X40.72384 Y431.56313 F18000
G0 Z0
G1 X42.22385 Y431.56313 F4000
G1 Z2 F4000
G1 X42.22385 Y431.56313 F18000
G1 X42.22385 Y411.18245 F18000
G0 Z0
G1 X42.97383 Y411.18245 F4000
G1 Z2 F4000
G1 X42.97383 Y411.18245 F18000
G1 X42.97383 Y431.56313 F18000
G0 Z0
G1 X46.88464 Y432.03059 F4000
G1 Z2 F4000
G1 X46.88464 Y432.03059 F18000
G1 X46.88464 Y411.18245 F18000
G0 Z0
G1 X45.83464 Y411.18245 F4000
G1 Z2 F4000
G1 X45.83464 Y411.18245 F18000
G1 X45.73463 Y300.00016 F18000
G0 Z0
G1 X46.48464 Y300.00016 F4000
G1 Z2 F4000
G1 X46.48464 Y300.00016 F18000
G1 X46.48464 Y381.89586 F18000
G0 Z0
G1 X47.98462 Y381.89586 F4000
G1 Z2 F4000
G1 X47.98462 Y381.89586 F18000
G1 X47.98462 Y300.00016 F18000
G0 Z0
G1 X47.23463 Y300.00016 F4000
G1 Z2 F4000
G1 X47.23463 Y300.00016 F18000
G1 X47.23463 Y381.89586 F18000
G1 X47.43463 Y381.89586 F18000
G1 X47.43463 Y411.18245 F18000
G0 Z0
G1 X49.03465 Y411.18245 F4000
G1 Z2 F4000
G1 X49.03465 Y411.18245 F18000
G1 X49.03465 Y381.89586 F18000
G1 X48.73464 Y381.89586 F18000
G1 X48.73464 Y300.00016 F18000
G0 Z0
G1 X49.48462 Y300.00016 F4000
G1 Z2 F4000
G1 X49.48462 Y300.00016 F18000
G1 X49.48462 Y381.89586 F18000
G0 Z0
G1 X50.23464 Y381.89586 F4000
G1 Z2 F4000
G1 X50.23464 Y381.89586 F18000
G1 X50.23464 Y300.00016 F18000
G0 Z0
G1 X50.98463 Y300.00016 F4000
G1 Z2 F4000
G1 X50.98463 Y300.00016 F18000
G1 X50.98463 Y381.89586 F18000
G1 X50.63464 Y381.89586 F18000
G1 X50.56624 Y434.62753 F18000
G0 Z0
G1 X49.80496 Y434.62753 F4000
G1 Z2 F4000
G1 X49.80496 Y434.62753 F18000
G1 X49.80496 Y487.31484 F18000
G1 X49.95495 Y487.31484 F18000
G1 X49.95495 Y494.03716 F18000
G0 Z0
G1 X48.35496 Y494.03716 F4000
G1 Z2 F4000
G1 X48.35496 Y494.03716 F18000
G1 X48.35496 Y487.31484 F18000
G0 Z0
G1 X51.55496 Y487.31484 F4000
G1 Z2 F4000
G1 X51.55496 Y487.31484 F18000
G1 X51.55496 Y494.03716 F18000
G0 Z0
G1 X53.15495 Y494.03716 F4000
G1 Z2 F4000
G1 X53.15495 Y494.03716 F18000
G1 X53.15495 Y487.31484 F18000
G0 Z0
G1 X52.45494 Y487.31484 F4000
G1 Z2 F4000
G1 X52.45494 Y487.31484 F18000
G1 X52.45494 Y434.62753 F18000
G1 X52.81623 Y434.62753 F18000
G1 X52.81623 Y432.03059 F18000
G1 X53.21623 Y432.03059 F18000
G1 X53.21623 Y411.18245 F18000
G0 Z0
G1 X52.23463 Y411.18245 F4000
G1 Z2 F4000
G1 X52.23463 Y411.18245 F18000
G1 X52.23463 Y381.89586 F18000
G1 X52.48463 Y381.89586 F18000
G1 X52.48463 Y300.00016 F18000
G0 Z0
G1 X51.73464 Y300.00016 F4000
G1 Z2 F4000
G1 X51.73464 Y300.00016 F18000
G1 X51.73464 Y381.89586 F18000
G0 Z0
G1 X53.23465 Y381.89586 F4000
G1 Z2 F4000
G1 X53.23465 Y381.89586 F18000
G1 X53.23465 Y300.00016 F18000
G0 Z0
G1 X53.98463 Y300.00016 F4000
G1 Z2 F4000
G1 X53.98463 Y300.00016 F18000
G1 X53.98463 Y381.89586 F18000
G1 X53.83464 Y381.89586 F18000
G1 X53.83464 Y411.18245 F18000
G0 Z0
G1 X57.03465 Y411.18245 F4000
G1 Z2 F4000
G1 X57.03465 Y411.18245 F18000
G1 X56.98464 Y300.00016 F18000
G0 Z0
G1 X56.23465 Y300.00016 F4000
G1 Z2 F4000
G1 X56.23465 Y300.00016 F18000
G1 X56.23465 Y381.89586 F18000
G0 Z0
G1 X54.73465 Y381.89586 F4000
G1 Z2 F4000
G1 X54.73465 Y381.89586 F18000
G1 X54.73465 Y300.00016 F18000
G0 Z0
G1 X55.48464 Y300.00016 F4000
G1 Z2 F4000
G1 X55.48464 Y300.00016 F18000
G1 X55.43463 Y411.18245 F18000
G1 X55.86625 Y411.18245 F18000
G1 X55.94205 Y550.0003 F18000
G0 Z0
G1 X55.19206 Y550.0003 F4000
G1 Z2 F4000
G1 X55.19206 Y550.0003 F18000
G1 X55.19206 Y434.62753 F18000
G1 X55.06625 Y434.62753 F18000
G1 X55.06625 Y432.03059 F18000
G0 Z0
G1 X54.31624 Y432.03059 F4000
G1 Z2 F4000
G1 X54.31624 Y432.03059 F18000
G1 X54.31624 Y434.62753 F18000
G0 Z0
G1 X53.56625 Y434.62753 F4000
G1 Z2 F4000
G1 X53.56625 Y434.62753 F18000
G1 X53.56625 Y432.03059 F18000
G0 Z0
G1 X52.06624 Y432.03059 F4000
G1 Z2 F4000
G1 X52.06624 Y432.03059 F18000
G1 X52.06624 Y434.62753 F18000
G0 Z0
G1 X51.31623 Y434.62753 F4000
G1 Z2 F4000
G1 X51.31623 Y434.62753 F18000
G1 X51.31623 Y432.03059 F18000
G0 Z0
G1 X56.56625 Y432.03059 F4000
G1 Z2 F4000
G1 X56.56625 Y432.03059 F18000
G1 X56.56625 Y434.62753 F18000
G1 X56.69204 Y434.62753 F18000
G1 X56.69204 Y550.0003 F18000
G0 Z0
G1 X59.4427 Y550.0003 F4000
G1 Z2 F4000
G1 X59.4427 Y550.0003 F18000
G1 X59.4427 Y494.03716 F18000
G0 Z0
G1 X60.42057 Y494.03716 F4000
G1 Z2 F4000
G1 X60.42057 Y494.03716 F18000
G1 X60.31625 Y432.03059 F18000
G0 Z0
G1 X61.81625 Y432.03059 F4000
G1 Z2 F4000
G1 X61.81625 Y432.03059 F18000
G1 X62.09269 Y528.85119 F18000
G0 Z0
G1 X63.08268 Y528.85119 F4000
G1 Z2 F4000
G1 X63.08268 Y528.85119 F18000
G1 X63.08268 Y550.0003 F18000
G0 Z0
G1 X64.7427 Y528.85119 F4000
G1 Z2 F4000
G1 X64.7427 Y528.85119 F18000
G1 X64.7427 Y494.03716 F18000
G1 X64.92056 Y494.03716 F18000
G1 X64.81626 Y432.03059 F18000
G0 Z0
G1 X65.56625 Y432.03059 F4000
G1 Z2 F4000
G1 X65.56625 Y432.03059 F18000
G1 X65.67057 Y494.03716 F18000
G0 Z0
G1 X66.42056 Y494.03716 F4000
G1 Z2 F4000
G1 X66.42056 Y494.03716 F18000
G1 X66.31626 Y432.03059 F18000
G1 X66.46625 Y432.03059 F18000
G1 X66.46625 Y411.18245 F18000
G1 X66.10846 Y411.18245 F18000
G1 X66.10846 Y381.89586 F18000
G0 Z0
G1 X66.85847 Y381.89586 F4000
G1 Z2 F4000
G1 X66.85847 Y381.89586 F18000
G1 X66.85847 Y411.18245 F18000
G0 Z0
G1 X67.60846 Y411.18245 F4000
G1 Z2 F4000
G1 X67.60846 Y411.18245 F18000
G1 X67.60846 Y381.89586 F18000
G0 Z0
G1 X72.85846 Y381.89586 F4000
G1 Z2 F4000
G1 X72.85846 Y381.89586 F18000
G1 X72.85846 Y411.18245 F18000
G0 Z0
G1 X71.35845 Y411.18245 F4000
G1 Z2 F4000
G1 X71.35845 Y411.18245 F18000
G1 X71.35845 Y381.89586 F18000
G0 Z0
G1 X70.60847 Y381.89586 F4000
G1 Z2 F4000
G1 X70.60847 Y381.89586 F18000
G1 X70.60847 Y411.18245 F18000
G0 Z0
G1 X69.85845 Y411.18245 F4000
G1 Z2 F4000
G1 X69.85845 Y411.18245 F18000
G1 X69.85845 Y381.89586 F18000
G0 Z0
G1 X69.10846 Y381.89586 F4000
G1 Z2 F4000
G1 X69.10846 Y381.89586 F18000
G1 X69.11624 Y432.03059 F18000
G1 X69.31624 Y432.03059 F18000
G1 X69.31624 Y434.62753 F18000
G1 X69.42057 Y434.62753 F18000
G1 X69.42057 Y494.03716 F18000
G0 Z0
G1 X68.67058 Y494.03716 F4000
G1 Z2 F4000
G1 X68.67058 Y494.03716 F18000
G1 X68.56625 Y432.03059 F18000
G0 Z0
G1 X70.06626 Y432.03059 F4000
G1 Z2 F4000
G1 X70.06626 Y432.03059 F18000
G1 X70.17058 Y494.03716 F18000
G1 X70.04271 Y494.03716 F18000
G1 X70.04271 Y528.85119 F18000
G1 X70.36269 Y528.85119 F18000
G1 X70.36269 Y550.0003 F18000
G0 Z0
G1 X66.72269 Y550.0003 F4000
G1 Z2 F4000
G1 X66.72269 Y550.0003 F18000
G1 X66.72269 Y528.85119 F18000
G0 Z0
G1 X67.39269 Y528.85119 F4000
G1 Z2 F4000
G1 X67.39269 Y528.85119 F18000
G1 X67.39269 Y494.03716 F18000
G1 X67.17057 Y494.03716 F18000
G1 X67.06625 Y432.03059 F18000
G0 Z0
G1 X67.81626 Y432.03059 F4000
G1 Z2 F4000
G1 X67.81626 Y432.03059 F18000
G1 X67.92056 Y494.03716 F18000
G0 Z0
G1 X70.92057 Y494.03716 F4000
G1 Z2 F4000
G1 X70.92057 Y494.03716 F18000
G1 X70.81624 Y432.03059 F18000
G0 Z0
G1 X72.31625 Y432.03059 F4000
G1 Z2 F4000
G1 X72.31625 Y432.03059 F18000
G1 X72.42057 Y494.03716 F18000
G1 X72.6927 Y494.03716 F18000
G1 X72.6927 Y528.85119 F18000
G0 Z0
G1 X74.0027 Y528.85119 F4000
G1 Z2 F4000
G1 X74.0027 Y528.85119 F18000
G1 X74.0027 Y550.0003 F18000
G0 Z0
G1 X77.64271 Y550.0003 F4000
G1 Z2 F4000
G1 X77.64271 Y550.0003 F18000
G1 X77.64271 Y528.85119 F18000
G1 X77.9927 Y528.85119 F18000
G1 X77.9927 Y494.03716 F18000
G1 X77.67057 Y494.03716 F18000
G1 X77.56624 Y432.03059 F18000
G0 Z0
G1 X78.31626 Y432.03059 F4000
G1 Z2 F4000
G1 X78.31626 Y432.03059 F18000
G1 X78.42058 Y494.03716 F18000
G0 Z0
G1 X81.42056 Y494.03716 F4000
G1 Z2 F4000
G1 X81.42056 Y494.03716 F18000
G1 X81.31627 Y432.03059 F18000
G0 Z0
G1 X80.56625 Y432.03059 F4000
G1 Z2 F4000
G1 X80.56625 Y432.03059 F18000
G1 X80.56625 Y434.62753 F18000
G1 X80.67058 Y434.62753 F18000
G1 X80.64269 Y528.85119 F18000
G0 Z0
G1 X81.28269 Y528.85119 F4000
G1 Z2 F4000
G1 X81.28269 Y528.85119 F18000
G1 X81.28269 Y550.0003 F18000
G0 Z0
G1 X84.9227 Y550.0003 F4000
G1 Z2 F4000
G1 X84.9227 Y550.0003 F18000
G1 X84.9227 Y528.85119 F18000
G0 Z0
G1 X85.94269 Y528.85119 F4000
G1 Z2 F4000
G1 X85.94269 Y528.85119 F18000
G1 X85.92057 Y434.62753 F18000
G1 X85.81625 Y434.62753 F18000
G1 X85.81625 Y432.03059 F18000
G0 Z0
G1 X86.56626 Y432.03059 F4000
G1 Z2 F4000
G1 X86.56626 Y432.03059 F18000
G1 X86.67059 Y494.03716 F18000
G0 Z0
G1 X89.67057 Y494.03716 F4000
G1 Z2 F4000
G1 X89.67057 Y494.03716 F18000
G1 X89.56627 Y432.03059 F18000
G0 Z0
G1 X91.06627 Y432.03059 F4000
G1 Z2 F4000
G1 X91.06627 Y432.03059 F18000
G1 X91.2427 Y528.85119 F18000
G0 Z0
G1 X92.20271 Y528.85119 F4000
G1 Z2 F4000
G1 X92.20271 Y528.85119 F18000
G1 X92.20271 Y550.0003 F18000
G0 Z0
G1 X95.84272 Y550.0003 F4000
G1 Z2 F4000
G1 X95.84272 Y550.0003 F18000
G1 X95.84272 Y528.85119 F18000
G0 Z0
G1 X93.89271 Y528.85119 F4000
G1 Z2 F4000
G1 X93.89271 Y528.85119 F18000
G1 X93.89271 Y494.03716 F18000
G1 X93.42059 Y494.03716 F18000
G1 X93.31626 Y432.03059 F18000
G0 Z0
G1 X91.81626 Y432.03059 F4000
G1 Z2 F4000
G1 X91.81626 Y432.03059 F18000
G1 X91.92059 Y494.03716 F18000
G0 Z0
G1 X90.42058 Y494.03716 F4000
G1 Z2 F4000
G1 X90.42058 Y494.03716 F18000
G1 X90.42058 Y434.62753 F18000
G1 X90.31626 Y434.62753 F18000
G1 X90.31626 Y411.18245 F18000
G1 X90.10848 Y411.18245 F18000
G1 X90.10848 Y381.89586 F18000
G1 X89.97846 Y381.89586 F18000
G1 X89.97846 Y300.00016 F18000
G0 Z0
G1 X93.61847 Y300.00016 F4000
G1 Z2 F4000
G1 X93.61847 Y300.00016 F18000
G1 X93.61847 Y381.89586 F18000
G1 X93.85847 Y381.89586 F18000
G1 X93.85847 Y411.18245 F18000
G0 Z0
G1 X94.60846 Y411.18245 F4000
G1 Z2 F4000
G1 X94.60846 Y411.18245 F18000
G1 X94.60846 Y381.89586 F18000
G0 Z0
G1 X95.35848 Y381.89586 F4000
G1 Z2 F4000
G1 X95.35848 Y381.89586 F18000
G1 X95.35848 Y411.18245 F18000
G1 X95.61626 Y411.18245 F18000
G1 X95.67058 Y494.03716 F18000
G0 Z0
G1 X94.92059 Y494.03716 F4000
G1 Z2 F4000
G1 X94.92059 Y494.03716 F18000
G1 X94.81627 Y432.03059 F18000
G0 Z0
G1 X94.06625 Y432.03059 F4000
G1 Z2 F4000
G1 X94.06625 Y432.03059 F18000
G1 X94.17058 Y494.03716 F18000
G0 Z0
G1 X92.67057 Y494.03716 F4000
G1 Z2 F4000
G1 X92.67057 Y494.03716 F18000
G1 X92.56628 Y432.03059 F18000
G1 X92.96627 Y432.03059 F18000
G1 X93.10849 Y381.89586 F18000
G0 Z0
G1 X92.35847 Y381.89586 F4000
G1 Z2 F4000
G1 X92.35847 Y381.89586 F18000
G1 X92.35847 Y411.18245 F18000
G0 Z0
G1 X91.60848 Y411.18245 F4000
G1 Z2 F4000
G1 X91.60848 Y411.18245 F18000
G1 X91.60848 Y381.89586 F18000
G0 Z0
G1 X90.85847 Y381.89586 F4000
G1 Z2 F4000
G1 X90.85847 Y381.89586 F18000
G1 X90.85847 Y411.18245 F18000
G0 Z0
G1 X89.35847 Y411.18245 F4000
G1 Z2 F4000
G1 X89.35847 Y411.18245 F18000
G1 X89.35847 Y381.89586 F18000
G0 Z0
G1 X88.60848 Y381.89586 F4000
G1 Z2 F4000
G1 X88.60848 Y381.89586 F18000
G1 X88.60848 Y411.18245 F18000
G0 Z0
G1 X99.31628 Y432.03059 F4000
G1 Z2 F4000
G1 X99.31628 Y432.03059 F18000
G1 X99.42057 Y494.03716 F18000
G0 Z0
G1 X98.67059 Y494.03716 F4000
G1 Z2 F4000
G1 X98.67059 Y494.03716 F18000
G1 X98.56626 Y432.03059 F18000
G0 Z0
G1 X97.81627 Y432.03059 F4000
G1 Z2 F4000
G1 X97.81627 Y432.03059 F18000
G1 X97.92057 Y494.03716 F18000
G0 Z0
G1 X97.17058 Y494.03716 F4000
G1 Z2 F4000
G1 X97.17058 Y494.03716 F18000
G1 X97.06626 Y432.03059 F18000
G0 Z0
G1 X96.31627 Y432.03059 F4000
G1 Z2 F4000
G1 X96.31627 Y432.03059 F18000
G1 X96.5427 Y528.85119 F18000
G0 Z0
G1 X101.91856 Y531.15825 F4000
G1 Z2 F4000
G1 X101.91856 Y531.15825 F18000
G1 X101.91856 Y550.0003 F18000
G0 Z0
G1 X100.31857 Y550.0003 F4000
G1 Z2 F4000
G1 X100.31857 Y550.0003 F18000
G1 X100.31857 Y434.62753 F18000
G0 Z0
G1 X101.04424 Y434.62753 F4000
G1 Z2 F4000
G1 X101.04424 Y434.62753 F18000
G1 X101.04424 Y406.56488 F18000
G0 Z0
G1 X100.31857 Y406.56488 F4000
G1 Z2 F4000
G1 X100.31857 Y406.56488 F18000
G1 X100.31857 Y300.00016 F18000
G0 Z0
G1 X101.91856 Y300.00016 F4000
G1 Z2 F4000
G1 X101.91856 Y300.00016 F18000
G1 X101.91856 Y391.88593 F18000
G0 Z0
G1 X96.10847 Y381.89586 F4000
G1 Z2 F4000
G1 X96.10847 Y381.89586 F18000
G1 X96.10847 Y411.18245 F18000
G0 Z0
G1 X96.85848 Y411.18245 F4000
G1 Z2 F4000
G1 X96.85848 Y411.18245 F18000
G1 X96.85848 Y381.89586 F18000
G0 Z0
G1 X97.60847 Y381.89586 F4000
G1 Z2 F4000
G1 X97.60847 Y381.89586 F18000
G1 X97.60847 Y411.18245 F18000
G0 Z0
G1 X98.35848 Y411.18245 F4000
G1 Z2 F4000
G1 X98.35848 Y411.18245 F18000
G1 X98.35848 Y381.89586 F18000
G0 Z0
G1 X99.10847 Y381.89586 F4000
G1 Z2 F4000
G1 X99.10847 Y381.89586 F18000
G1 X99.10847 Y411.18245 F18000
G0 Z0
G1 X103.95858 Y406.56488 F4000
G1 Z2 F4000
G1 X103.95858 Y406.56488 F18000
G1 X103.95858 Y391.88593 F18000
G1 X103.51858 Y391.88593 F18000
G1 X103.51858 Y300.00016 F18000
G0 Z0
G1 X105.11857 Y300.00016 F4000
G1 Z2 F4000
G1 X105.11857 Y300.00016 F18000
G1 X105.11857 Y391.88593 F18000
G0 Z0
G1 X106.71858 Y391.88593 F4000
G1 Z2 F4000
G1 X106.71858 Y391.88593 F18000
G1 X106.71858 Y300.00016 F18000
G0 Z0
G1 X108.31857 Y300.00016 F4000
G1 Z2 F4000
G1 X108.31857 Y300.00016 F18000
G1 X108.31857 Y391.88593 F18000
G0 Z0
G1 X107.59859 Y391.88593 F4000
G1 Z2 F4000
G1 X107.59859 Y391.88593 F18000
G1 X107.59859 Y406.56488 F18000
G0 Z0
G1 X104.68425 Y406.56488 F4000
G1 Z2 F4000
G1 X104.68425 Y406.56488 F18000
G1 X104.68425 Y428.92684 F18000
G1 X104.24425 Y428.92684 F18000
G1 X104.24425 Y434.62753 F18000
G0 Z0
G1 X102.64426 Y434.62753 F4000
G1 Z2 F4000
G1 X102.64426 Y434.62753 F18000
G1 X102.64426 Y428.92684 F18000
G0 Z0
G1 X105.84424 Y428.92684 F4000
G1 Z2 F4000
G1 X105.84424 Y428.92684 F18000
G1 X105.84424 Y434.62753 F18000
G0 Z0
G1 X106.90284 Y434.62753 F4000
G1 Z2 F4000
G1 X106.90284 Y434.62753 F18000
G1 X106.90284 Y507.00334 F18000
G0 Z0
G1 X105.11857 Y507.00334 F4000
G1 Z2 F4000
G1 X105.11857 Y507.00334 F18000
G1 X105.11857 Y502.66758 F18000
G0 Z0
G1 X101.91856 Y507.00334 F4000
G1 Z2 F4000
G1 X101.91856 Y507.00334 F18000
G1 X101.91856 Y502.66758 F18000
G0 Z0
G1 X103.51858 Y502.66758 F4000
G1 Z2 F4000
G1 X103.51858 Y502.66758 F18000
G1 X103.51858 Y507.00334 F18000
G1 X103.95858 Y507.00334 F18000
G1 X103.95858 Y531.15825 F18000
G1 X103.51858 Y531.15825 F18000
G1 X103.51858 Y550.0003 F18000
G0 Z0
G1 X105.11857 Y550.0003 F4000
G1 Z2 F4000
G1 X105.11857 Y550.0003 F18000
G1 X105.11857 Y531.15825 F18000
G0 Z0
G1 X106.71858 Y531.15825 F4000
G1 Z2 F4000
G1 X106.71858 Y531.15825 F18000
G1 X106.71858 Y550.0003 F18000
G0 Z0
G1 X108.31857 Y550.0003 F4000
G1 Z2 F4000
G1 X108.31857 Y550.0003 F18000
G1 X108.31857 Y531.15825 F18000
G0 Z0
G1 X107.59859 Y531.15825 F4000
G1 Z2 F4000
G1 X107.59859 Y531.15825 F18000
G1 X107.59859 Y507.00334 F18000
G0 Z0
G1 X109.55285 Y507.00334 F4000
G1 Z2 F4000
G1 X109.55285 Y507.00334 F18000
G1 X109.55285 Y502.66758 F18000
G1 X109.15285 Y502.66758 F18000
G1 X109.15285 Y434.62753 F18000
G1 X109.04424 Y434.62753 F18000
G1 X109.04424 Y428.92684 F18000
G0 Z0
G1 X110.64426 Y428.92684 F4000
G1 Z2 F4000
G1 X110.64426 Y428.92684 F18000
G1 X110.65286 Y502.66758 F18000
G0 Z0
G1 X109.90284 Y502.66758 F4000
G1 Z2 F4000
G1 X109.90284 Y502.66758 F18000
G1 X109.90284 Y434.62753 F18000
G0 Z0
G1 X108.40284 Y434.62753 F4000
G1 Z2 F4000
G1 X108.40284 Y434.62753 F18000
G1 X108.40284 Y502.66758 F18000
G0 Z0
G1 X107.65285 Y502.66758 F4000
G1 Z2 F4000
G1 X107.65285 Y502.66758 F18000
G1 X107.65285 Y434.62753 F18000
G1 X107.44425 Y434.62753 F18000
G1 X107.44425 Y428.92684 F18000
G0 Z0
G1 X108.32426 Y428.92684 F4000
G1 Z2 F4000
G1 X108.32426 Y428.92684 F18000
G1 X108.32426 Y406.56488 F18000
G0 Z0
G1 X111.23857 Y406.56488 F4000
G1 Z2 F4000
G1 X111.23857 Y406.56488 F18000
G1 X111.23857 Y391.88593 F18000
G1 X111.51858 Y391.88593 F18000
G1 X111.51858 Y300.00016 F18000
G0 Z0
G1 X109.91859 Y300.00016 F4000
G1 Z2 F4000
G1 X109.91859 Y300.00016 F18000
G1 X109.91859 Y391.88593 F18000
G0 Z0
G1 X113.11859 Y391.88593 F4000
G1 Z2 F4000
G1 X113.11859 Y391.88593 F18000
G1 X113.11859 Y300.00016 F18000
G0 Z0
G1 X115.48677 Y300.00016 F4000
G1 Z2 F4000
G1 X115.48677 Y300.00016 F18000
G1 X115.60425 Y428.92684 F18000
G1 X115.44425 Y428.92684 F18000
G1 X115.44425 Y434.62753 F18000
G1 X115.15284 Y434.62753 F18000
G1 X115.15284 Y502.66758 F18000
G1 X114.85286 Y502.66758 F18000
G1 X114.85286 Y507.00334 F18000
G0 Z0
G1 X118.15285 Y502.66758 F4000
G1 Z2 F4000
G1 X118.15285 Y502.66758 F18000
G1 X118.15285 Y434.62753 F18000
G0 Z0
G1 X116.65284 Y434.62753 F4000
G1 Z2 F4000
G1 X116.65284 Y434.62753 F18000
G1 X116.65284 Y502.66758 F18000
G0 Z0
G1 X115.90286 Y502.66758 F4000
G1 Z2 F4000
G1 X115.90286 Y502.66758 F18000
G1 X115.90286 Y434.62753 F18000
G0 Z0
G1 X114.40285 Y434.62753 F4000
G1 Z2 F4000
G1 X114.40285 Y434.62753 F18000
G1 X114.40285 Y502.66758 F18000
G0 Z0
G1 X111.40285 Y502.66758 F4000
G1 Z2 F4000
G1 X111.40285 Y502.66758 F18000
G1 X111.40285 Y434.62753 F18000
G0 Z0
G1 X112.90285 Y434.62753 F4000
G1 Z2 F4000
G1 X112.90285 Y434.62753 F18000
G1 X112.90285 Y502.66758 F18000
G0 Z0
G1 X113.65284 Y502.66758 F4000
G1 Z2 F4000
G1 X113.65284 Y502.66758 F18000
G1 X113.65284 Y434.62753 F18000
G1 X113.84426 Y434.62753 F18000
G1 X113.84426 Y428.92684 F18000
G0 Z0
G1 X119.65285 Y434.62753 F4000
G1 Z2 F4000
G1 X119.65285 Y434.62753 F18000
G1 X119.65285 Y502.66758 F18000
G0 Z0
G1 X118.90286 Y502.66758 F4000
G1 Z2 F4000
G1 X118.90286 Y502.66758 F18000
G1 X118.90286 Y434.62753 F18000
G1 X118.64426 Y434.62753 F18000
G1 X118.64426 Y428.92684 F18000
G0 Z0
G1 X117.04427 Y428.92684 F4000
G1 Z2 F4000
G1 X117.04427 Y428.92684 F18000
G1 X117.04427 Y434.62753 F18000
G1 X117.40286 Y434.62753 F18000
G1 X117.50284 Y507.00334 F18000
G0 Z0
G1 X116.96979 Y507.00334 F4000
G1 Z2 F4000
G1 X116.96979 Y507.00334 F18000
G1 X116.96979 Y550.0003 F18000
G0 Z0
G1 X118.56978 Y550.0003 F4000
G1 Z2 F4000
G1 X118.56978 Y550.0003 F18000
G1 X118.56978 Y531.15825 F18000
G0 Z0
G1 X114.71858 Y531.15825 F4000
G1 Z2 F4000
G1 X114.71858 Y531.15825 F18000
G1 X114.71858 Y550.0003 F18000
G0 Z0
G1 X113.11859 Y550.0003 F4000
G1 Z2 F4000
G1 X113.11859 Y550.0003 F18000
G1 X113.11859 Y531.15825 F18000
G0 Z0
G1 X109.91859 Y531.15825 F4000
G1 Z2 F4000
G1 X109.91859 Y531.15825 F18000
G1 X109.91859 Y550.0003 F18000
G0 Z0
G1 X111.51858 Y550.0003 F4000
G1 Z2 F4000
G1 X111.51858 Y550.0003 F18000
G1 X111.51858 Y531.15825 F18000
G1 X111.23857 Y531.15825 F18000
G1 X111.23857 Y507.00334 F18000
G0 Z0
G1 X112.20284 Y507.00334 F4000
G1 Z2 F4000
G1 X112.20284 Y507.00334 F18000
G1 X112.24425 Y428.92684 F18000
G1 X111.96427 Y428.92684 F18000
G1 X111.96427 Y406.56488 F18000
G0 Z0
G1 X117.08679 Y406.56488 F4000
G1 Z2 F4000
G1 X117.08679 Y406.56488 F18000
G1 X117.08679 Y391.88593 F18000
G0 Z0
G1 X120.28679 Y391.88593 F4000
G1 Z2 F4000
G1 X120.28679 Y391.88593 F18000
G1 X120.28679 Y406.56488 F18000
G0 Z0
G1 X121.88678 Y406.56488 F4000
G1 Z2 F4000
G1 X121.88678 Y406.56488 F18000
G1 X121.88678 Y391.88593 F18000
G0 Z0
G1 X122.76679 Y391.88593 F4000
G1 Z2 F4000
G1 X122.76679 Y391.88593 F18000
G1 X122.76679 Y300.00016 F18000
G0 Z0
G1 X119.12678 Y300.00016 F4000
G1 Z2 F4000
G1 X119.12678 Y300.00016 F18000
G1 X119.12678 Y391.88593 F18000
G1 X118.68678 Y391.88593 F18000
G1 X118.68678 Y406.56488 F18000
G0 Z0
G1 X119.24425 Y406.56488 F4000
G1 Z2 F4000
G1 X119.24425 Y406.56488 F18000
G1 X119.24425 Y428.92684 F18000
G0 Z0
G1 X120.24425 Y428.92684 F4000
G1 Z2 F4000
G1 X120.24425 Y428.92684 F18000
G1 X120.24425 Y434.62753 F18000
G1 X120.40286 Y434.62753 F18000
G1 X120.40286 Y502.66758 F18000
G1 X120.15286 Y502.66758 F18000
G1 X120.15286 Y507.00334 F18000
G1 X120.6098 Y507.00334 F18000
G1 X120.6098 Y531.15825 F18000
G1 X120.16979 Y531.15825 F18000
G1 X120.16979 Y550.0003 F18000
G0 Z0
G1 X121.76978 Y550.0003 F4000
G1 Z2 F4000
G1 X121.76978 Y550.0003 F18000
G1 X121.76978 Y531.15825 F18000
G0 Z0
G1 X123.3698 Y531.15825 F4000
G1 Z2 F4000
G1 X123.3698 Y531.15825 F18000
G1 X123.3698 Y550.0003 F18000
G0 Z0
G1 X124.96979 Y550.0003 F4000
G1 Z2 F4000
G1 X124.96979 Y550.0003 F18000
G1 X124.96979 Y531.15825 F18000
G0 Z0
G1 X124.2498 Y531.15825 F4000
G1 Z2 F4000
G1 X124.2498 Y531.15825 F18000
G1 X124.2498 Y507.00334 F18000
G0 Z0
G1 X122.80285 Y507.00334 F4000
G1 Z2 F4000
G1 X122.80285 Y507.00334 F18000
G1 X122.80285 Y502.66758 F18000
G1 X122.65286 Y502.66758 F18000
G1 X122.65286 Y434.62753 F18000
G0 Z0
G1 X121.15285 Y434.62753 F4000
G1 Z2 F4000
G1 X121.15285 Y434.62753 F18000
G1 X121.15285 Y502.66758 F18000
G0 Z0
G1 X121.90284 Y502.66758 F4000
G1 Z2 F4000
G1 X121.90284 Y502.66758 F18000
G1 X121.84426 Y428.92684 F18000
G0 Z0
G1 X122.88426 Y428.92684 F4000
G1 Z2 F4000
G1 X122.88426 Y428.92684 F18000
G1 X122.88426 Y406.56488 F18000
G0 Z0
G1 X123.4868 Y406.56488 F4000
G1 Z2 F4000
G1 X123.4868 Y406.56488 F18000
G1 X123.4868 Y391.88593 F18000
G0 Z0
G1 X125.08679 Y391.88593 F4000
G1 Z2 F4000
G1 X125.08679 Y391.88593 F18000
G1 X125.08679 Y406.56488 F18000
G0 Z0
G1 X128.28679 Y406.56488 F4000
G1 Z2 F4000
G1 X128.28679 Y406.56488 F18000
G1 X128.28679 Y391.88593 F18000
G0 Z0
G1 X129.88678 Y391.88593 F4000
G1 Z2 F4000
G1 X129.88678 Y391.88593 F18000
G1 X129.88678 Y406.56488 F18000
G0 Z0
G1 X132.51648 Y406.56488 F4000
G1 Z2 F4000
G1 X132.51648 Y406.56488 F18000
G1 X132.51648 Y429.00281 F18000
G0 Z0
G1 X133.26646 Y429.00281 F4000
G1 Z2 F4000
G1 X133.26646 Y429.00281 F18000
G1 X133.36648 Y401.08123 F18000
G0 Z0
G1 X134.41648 Y401.08123 F4000
G1 Z2 F4000
G1 X134.41648 Y401.08123 F18000
G1 X134.41648 Y300.00016 F18000
G0 Z0
G1 X137.06646 Y300.00016 F4000
G1 Z2 F4000
G1 X137.06646 Y300.00016 F18000
G1 X137.06646 Y401.08123 F18000
G1 X136.56648 Y401.08123 F18000
G1 X136.56648 Y406.56488 F18000
G1 X136.26647 Y406.56488 F18000
G1 X136.26647 Y429.00281 F18000
G0 Z0
G1 X137.01648 Y429.00281 F4000
G1 Z2 F4000
G1 X137.01648 Y429.00281 F18000
G1 X137.01648 Y406.56488 F18000
G0 Z0
G1 X137.76647 Y406.56488 F4000
G1 Z2 F4000
G1 X137.76647 Y406.56488 F18000
G1 X137.76647 Y429.00281 F18000
G0 Z0
G1 X138.51649 Y429.00281 F4000
G1 Z2 F4000
G1 X138.51649 Y429.00281 F18000
G1 X138.51649 Y406.56488 F18000
G1 X138.16647 Y406.56488 F18000
G1 X138.16647 Y401.08123 F18000
G0 Z0
G1 X134.96647 Y401.08123 F4000
G1 Z2 F4000
G1 X134.96647 Y401.08123 F18000
G1 X134.96647 Y406.56488 F18000
G1 X134.76647 Y406.56488 F18000
G1 X134.76647 Y429.00281 F18000
G0 Z0
G1 X134.01648 Y429.00281 F4000
G1 Z2 F4000
G1 X134.01648 Y429.00281 F18000
G1 X134.01648 Y406.56488 F18000
G0 Z0
G1 X135.51648 Y406.56488 F4000
G1 Z2 F4000
G1 X135.51648 Y406.56488 F18000
G1 X135.40287 Y502.66758 F18000
G0 Z0
G1 X134.65285 Y502.66758 F4000
G1 Z2 F4000
G1 X134.65285 Y502.66758 F18000
G1 X134.65285 Y434.62753 F18000
G0 Z0
G1 X133.90287 Y434.62753 F4000
G1 Z2 F4000
G1 X133.90287 Y434.62753 F18000
G1 X133.90287 Y502.66758 F18000
G0 Z0
G1 X132.40286 Y502.66758 F4000
G1 Z2 F4000
G1 X132.40286 Y502.66758 F18000
G1 X132.40286 Y434.62753 F18000
G0 Z0
G1 X133.15285 Y434.62753 F4000
G1 Z2 F4000
G1 X133.15285 Y434.62753 F18000
G1 X133.15285 Y502.66758 F18000
G1 X133.40286 Y502.66758 F18000
G1 X133.40286 Y507.00334 F18000
G0 Z0
G1 X141.35288 Y507.00334 F4000
G1 Z2 F4000
G1 X141.35288 Y507.00334 F18000
G1 X141.40286 Y434.62753 F18000
G0 Z0
G1 X142.15287 Y434.62753 F4000
G1 Z2 F4000
G1 X142.15287 Y434.62753 F18000
G1 X142.15287 Y502.66758 F18000
G0 Z0
G1 X140.65287 Y502.66758 F4000
G1 Z2 F4000
G1 X140.65287 Y502.66758 F18000
G1 X140.65287 Y434.62753 F18000
G0 Z0
G1 X139.90285 Y434.62753 F4000
G1 Z2 F4000
G1 X139.90285 Y434.62753 F18000
G1 X139.90285 Y502.66758 F18000
G0 Z0
G1 X138.40285 Y502.66758 F4000
G1 Z2 F4000
G1 X138.40285 Y502.66758 F18000
G1 X138.40285 Y434.62753 F18000
G0 Z0
G1 X137.65286 Y434.62753 F4000
G1 Z2 F4000
G1 X137.65286 Y434.62753 F18000
G1 X137.65286 Y502.66758 F18000
G0 Z0
G1 X136.90287 Y502.66758 F4000
G1 Z2 F4000
G1 X136.90287 Y502.66758 F18000
G1 X136.90287 Y434.62753 F18000
G0 Z0
G1 X136.15286 Y434.62753 F4000
G1 Z2 F4000
G1 X136.15286 Y434.62753 F18000
G1 X136.05287 Y507.00334 F18000
G0 Z0
G1 X135.1698 Y507.00334 F4000
G1 Z2 F4000
G1 X135.1698 Y507.00334 F18000
G1 X135.1698 Y531.15825 F18000
G0 Z0
G1 X134.5698 Y531.15825 F4000
G1 Z2 F4000
G1 X134.5698 Y531.15825 F18000
G1 X134.5698 Y550.0003 F18000
G0 Z0
G1 X136.16979 Y550.0003 F4000
G1 Z2 F4000
G1 X136.16979 Y550.0003 F18000
G1 X136.16979 Y531.15825 F18000
G0 Z0
G1 X137.76981 Y531.15825 F4000
G1 Z2 F4000
G1 X137.76981 Y531.15825 F18000
G1 X137.76981 Y550.0003 F18000
G0 Z0
G1 X139.3698 Y550.0003 F4000
G1 Z2 F4000
G1 X139.3698 Y550.0003 F18000
G1 X139.3698 Y531.15825 F18000
G0 Z0
G1 X138.8098 Y531.15825 F4000
G1 Z2 F4000
G1 X138.8098 Y531.15825 F18000
G1 X138.70286 Y502.66758 F18000
G1 X139.15286 Y502.66758 F18000
G1 X139.04647 Y429.00281 F18000
G1 X139.26648 Y429.00281 F18000
G1 X139.26648 Y406.56488 F18000
G0 Z0
G1 X140.76648 Y406.56488 F4000
G1 Z2 F4000
G1 X140.76648 Y406.56488 F18000
G1 X140.76648 Y429.00281 F18000
G0 Z0
G1 X140.01646 Y429.00281 F4000
G1 Z2 F4000
G1 X140.01646 Y429.00281 F18000
G1 X140.01646 Y406.56488 F18000
G1 X139.76649 Y406.56488 F18000
G1 X139.71648 Y401.08123 F18000
G1 X139.71648 Y300.00016 F18000
G0 Z0
G1 X142.36647 Y300.00016 F4000
G1 Z2 F4000
G1 X142.36647 Y300.00016 F18000
G1 X142.36647 Y401.08123 F18000
G0 Z0
G1 X141.36648 Y401.08123 F4000
G1 Z2 F4000
G1 X141.36648 Y401.08123 F18000
G1 X141.36648 Y406.56488 F18000
G1 X141.51647 Y406.56488 F18000
G1 X141.51647 Y429.00281 F18000
G0 Z0
G1 X142.26648 Y429.00281 F4000
G1 Z2 F4000
G1 X142.26648 Y429.00281 F18000
G1 X142.26648 Y406.56488 F18000
G0 Z0
G1 X146.76649 Y406.56488 F4000
G1 Z2 F4000
G1 X146.76649 Y406.56488 F18000
G1 X146.76649 Y429.00281 F18000
G0 Z0
G1 X145.26649 Y429.00281 F4000
G1 Z2 F4000
G1 X145.26649 Y429.00281 F18000
G1 X145.26649 Y406.56488 F18000
G0 Z0
G1 X143.76649 Y406.56488 F4000
G1 Z2 F4000
G1 X143.76649 Y406.56488 F18000
G1 X143.76649 Y429.00281 F18000
G0 Z0
G1 X144.51647 Y429.00281 F4000
G1 Z2 F4000
G1 X144.51647 Y429.00281 F18000
G1 X144.56648 Y401.08123 F18000
G1 X145.01648 Y401.08123 F18000
G1 X145.01648 Y300.00016 F18000
G0 Z0
G1 X147.66647 Y300.00016 F4000
G1 Z2 F4000
G1 X147.66647 Y300.00016 F18000
G1 X147.76648 Y406.56488 F18000
G1 X147.51648 Y406.56488 F18000
G1 X147.51648 Y429.00281 F18000
G0 Z0
G1 X148.26647 Y429.00281 F4000
G1 Z2 F4000
G1 X148.26647 Y429.00281 F18000
G1 X148.26647 Y406.56488 F18000
G0 Z0
G1 X149.36647 Y401.08123 F4000
G1 Z2 F4000
G1 X149.36647 Y401.08123 F18000
G1 X149.36647 Y406.56488 F18000
G1 X149.01648 Y406.56488 F18000
G1 X149.01648 Y429.00281 F18000
G0 Z0
G1 X152.01649 Y429.00281 F4000
G1 Z2 F4000
G1 X152.01649 Y429.00281 F18000
G1 X152.01649 Y406.56488 F18000
G0 Z0
G1 X156.51647 Y429.00281 F4000
G1 Z2 F4000
G1 X156.51647 Y429.00281 F18000
G1 X156.51647 Y406.56488 F18000
G0 Z0
G1 X158.01648 Y406.56488 F4000
G1 Z2 F4000
G1 X158.01648 Y406.56488 F18000
G1 X158.01648 Y429.00281 F18000
G0 Z0
G1 X160.26649 Y429.00281 F4000
G1 Z2 F4000
G1 X160.26649 Y429.00281 F18000
G1 X160.26649 Y406.56488 F18000
G1 X160.56648 Y406.56488 F18000
G1 X160.56648 Y401.08123 F18000
G1 X160.9165 Y401.08123 F18000
G1 X160.9165 Y300.00016 F18000
G0 Z0
G1 X163.56648 Y300.00016 F4000
G1 Z2 F4000
G1 X163.56648 Y300.00016 F18000
G1 X163.56648 Y401.08123 F18000
G1 X163.76648 Y401.08123 F18000
G1 X163.76648 Y406.56488 F18000
G1 X164.01649 Y406.56488 F18000
G1 X164.01649 Y429.00281 F18000
G0 Z0
G1 X163.2665 Y429.00281 F4000
G1 Z2 F4000
G1 X163.2665 Y429.00281 F18000
G1 X163.2665 Y406.56488 F18000
G0 Z0
G1 X161.7665 Y406.56488 F4000
G1 Z2 F4000
G1 X161.7665 Y406.56488 F18000
G1 X161.7665 Y429.00281 F18000
G0 Z0
G1 X162.51648 Y429.00281 F4000
G1 Z2 F4000
G1 X162.51648 Y429.00281 F18000
G1 X162.51648 Y406.56488 F18000
G1 X162.16649 Y406.56488 F18000
G1 X162.16649 Y401.08123 F18000
G0 Z0
G1 X166.96649 Y401.08123 F4000
G1 Z2 F4000
G1 X166.96649 Y401.08123 F18000
G1 X167.01649 Y429.00281 F18000
G0 Z0
G1 X167.76648 Y429.00281 F4000
G1 Z2 F4000
G1 X167.76648 Y429.00281 F18000
G1 X167.76648 Y406.56488 F18000
G0 Z0
G1 X169.26649 Y406.56488 F4000
G1 Z2 F4000
G1 X169.26649 Y406.56488 F18000
G1 X169.26649 Y429.00281 F18000
G0 Z0
G1 X170.0165 Y429.00281 F4000
G1 Z2 F4000
G1 X170.0165 Y429.00281 F18000
G1 X170.0165 Y406.56488 F18000
G1 X170.16649 Y406.56488 F18000
G1 X170.16649 Y401.08123 F18000
G0 Z0
G1 X170.76649 Y406.56488 F4000
G1 Z2 F4000
G1 X170.76649 Y406.56488 F18000
G1 X170.76649 Y429.00281 F18000
G0 Z0
G1 X172.26649 Y429.00281 F4000
G1 Z2 F4000
G1 X172.26649 Y429.00281 F18000
G1 X172.26649 Y406.56488 F18000
G0 Z0
G1 X176.01649 Y406.56488 F4000
G1 Z2 F4000
G1 X176.01649 Y406.56488 F18000
G1 X176.01649 Y429.00281 F18000
G0 Z0
G1 X174.51648 Y429.00281 F4000
G1 Z2 F4000
G1 X174.51648 Y429.00281 F18000
G1 X174.51648 Y406.56488 F18000
G0 Z0
G1 X173.76649 Y406.56488 F4000
G1 Z2 F4000
G1 X173.76649 Y406.56488 F18000
G1 X173.76649 Y429.00281 F18000
G0 Z0
G1 X173.01651 Y429.00281 F4000
G1 Z2 F4000
G1 X173.01651 Y429.00281 F18000
G1 X173.01651 Y406.56488 F18000
G1 X173.3665 Y406.56488 F18000
G1 X173.3665 Y401.08123 F18000
G0 Z0
G1 X174.16649 Y401.08123 F4000
G1 Z2 F4000
G1 X174.16649 Y401.08123 F18000
G1 X174.16649 Y300.00016 F18000
G0 Z0
G1 X171.5165 Y300.00016 F4000
G1 Z2 F4000
G1 X171.5165 Y300.00016 F18000
G1 X171.5165 Y401.08123 F18000
G1 X171.76648 Y401.08123 F18000
G1 X171.76648 Y406.56488 F18000
G1 X171.5165 Y406.56488 F18000
G1 X171.5165 Y429.00281 F18000
G1 X171.80649 Y429.00281 F18000
G1 X171.80649 Y434.62753 F18000
G1 X172.29081 Y434.62753 F18000
G1 X172.29081 Y472.12563 F18000
G0 Z0
G1 X175.49081 Y472.12563 F4000
G1 Z2 F4000
G1 X175.49081 Y472.12563 F18000
G1 X175.49081 Y434.62753 F18000
G1 X175.44649 Y429.00281 F18000
G1 X175.2665 Y429.00281 F18000
G1 X175.2665 Y406.56488 F18000
G1 X174.96649 Y406.56488 F18000
G1 X174.96649 Y401.08123 F18000
G0 Z0
G1 X178.16649 Y401.08123 F4000
G1 Z2 F4000
G1 X178.16649 Y401.08123 F18000
G1 X178.2665 Y429.00281 F18000
G0 Z0
G1 X181.26651 Y429.00281 F4000
G1 Z2 F4000
G1 X181.26651 Y429.00281 F18000
G1 X181.3665 Y401.08123 F18000
G0 Z0
G1 X182.11651 Y401.08123 F4000
G1 Z2 F4000
G1 X182.11651 Y401.08123 F18000
G1 X182.11651 Y300.00016 F18000
G0 Z0
G1 X184.7665 Y300.00016 F4000
G1 Z2 F4000
G1 X184.7665 Y300.00016 F18000
G1 X184.7665 Y401.08123 F18000
G1 X184.5665 Y401.08123 F18000
G1 X184.5665 Y406.56488 F18000
G0 Z0
G1 X183.89726 Y406.56488 F4000
G1 Z2 F4000
G1 X183.89726 Y406.56488 F18000
G1 X183.89726 Y434.62753 F18000
G1 X183.49081 Y434.62753 F18000
G1 X183.49081 Y472.12563 F18000
G0 Z0
G1 X186.69082 Y472.12563 F4000
G1 Z2 F4000
G1 X186.69082 Y472.12563 F18000
G1 X186.69082 Y434.62753 F18000
G1 X187.09727 Y434.62753 F18000
G1 X187.09727 Y406.56488 F18000
G0 Z0
G1 X187.76651 Y406.56488 F4000
G1 Z2 F4000
G1 X187.76651 Y406.56488 F18000
G1 X187.76651 Y401.08123 F18000
G0 Z0
G1 X188.69726 Y406.56488 F4000
G1 Z2 F4000
G1 X188.69726 Y406.56488 F18000
G1 X188.69726 Y434.62753 F18000
G1 X188.29083 Y434.62753 F18000
G1 X188.37251 Y547.19796 F18000
G0 Z0
G1 X187.47253 Y547.19796 F4000
G1 Z2 F4000
G1 X187.47253 Y547.19796 F18000
G1 X187.47253 Y550.0003 F18000
G0 Z0
G1 X189.07252 Y550.0003 F4000
G1 Z2 F4000
G1 X189.07252 Y550.0003 F18000
G1 X189.07252 Y547.19796 F18000
G0 Z0
G1 X192.27252 Y547.19796 F4000
G1 Z2 F4000
G1 X192.27252 Y547.19796 F18000
G1 X192.27252 Y550.0003 F18000
G0 Z0
G1 X193.87251 Y550.0003 F4000
G1 Z2 F4000
G1 X193.87251 Y550.0003 F18000
G1 X193.87251 Y547.19796 F18000
G1 X193.67251 Y547.19796 F18000
G1 X193.67251 Y507.00334 F18000
G0 Z0
G1 X191.97082 Y507.00334 F4000
G1 Z2 F4000
G1 X191.97082 Y507.00334 F18000
G1 X191.97082 Y472.12563 F18000
G1 X191.49081 Y472.12563 F18000
G1 X191.49081 Y434.62753 F18000
G1 X191.89726 Y434.62753 F18000
G1 X191.83419 Y401.08123 F18000
G0 Z0
G1 X193.33419 Y401.08123 F4000
G1 Z2 F4000
G1 X193.33419 Y401.08123 F18000
G1 X193.33419 Y406.56488 F18000
G1 X193.49725 Y406.56488 F18000
G1 X193.49725 Y434.62753 F18000
G1 X193.09082 Y434.62753 F18000
G1 X193.09082 Y472.12563 F18000
G0 Z0
G1 X189.89082 Y472.12563 F4000
G1 Z2 F4000
G1 X189.89082 Y472.12563 F18000
G1 X189.89082 Y434.62753 F18000
G1 X190.29727 Y434.62753 F18000
G1 X190.33418 Y401.08123 F18000
G0 Z0
G1 X191.0842 Y401.08123 F4000
G1 Z2 F4000
G1 X191.0842 Y401.08123 F18000
G1 X191.0842 Y406.56488 F18000
G0 Z0
G1 X189.58419 Y406.56488 F4000
G1 Z2 F4000
G1 X189.58419 Y406.56488 F18000
G1 X189.58419 Y300.00016 F18000
G0 Z0
G1 X192.23418 Y300.00016 F4000
G1 Z2 F4000
G1 X192.23418 Y300.00016 F18000
G1 X192.23418 Y401.08123 F18000
G1 X192.5842 Y401.08123 F18000
G1 X192.5842 Y406.56488 F18000
G0 Z0
G1 X194.0842 Y406.56488 F4000
G1 Z2 F4000
G1 X194.0842 Y406.56488 F18000
G1 X194.0842 Y401.08123 F18000
G0 Z0
G1 X195.58421 Y401.08123 F4000
G1 Z2 F4000
G1 X195.58421 Y401.08123 F18000
G1 X195.58421 Y406.56488 F18000
G0 Z0
G1 X197.08421 Y406.56488 F4000
G1 Z2 F4000
G1 X197.08421 Y406.56488 F18000
G1 X197.08421 Y401.08123 F18000
G0 Z0
G1 X198.58419 Y401.08123 F4000
G1 Z2 F4000
G1 X198.58419 Y401.08123 F18000
G1 X198.58419 Y406.56488 F18000
G0 Z0
G1 X199.3342 Y406.56488 F4000
G1 Z2 F4000
G1 X199.3342 Y406.56488 F18000
G1 X199.3342 Y401.08123 F18000
G0 Z0
G1 X200.8342 Y401.08123 F4000
G1 Z2 F4000
G1 X200.8342 Y401.08123 F18000
G1 X200.8342 Y406.56488 F18000
G0 Z0
G1 X202.33421 Y406.56488 F4000
G1 Z2 F4000
G1 X202.33421 Y406.56488 F18000
G1 X202.33421 Y401.08123 F18000
G0 Z0
G1 X203.83421 Y401.08123 F4000
G1 Z2 F4000
G1 X203.83421 Y401.08123 F18000
G1 X203.83421 Y406.56488 F18000
G0 Z0
G1 X205.33421 Y406.56488 F4000
G1 Z2 F4000
G1 X205.33421 Y406.56488 F18000
G1 X205.33421 Y401.08123 F18000
G1 X205.48421 Y401.08123 F18000
G1 X205.48421 Y300.00016 F18000
G0 Z0
G1 X208.13419 Y300.00016 F4000
G1 Z2 F4000
G1 X208.13419 Y300.00016 F18000
G1 X208.13419 Y401.08123 F18000
G1 X208.33419 Y401.08123 F18000
G1 X208.33419 Y406.56488 F18000
G1 X207.89726 Y406.56488 F18000
G1 X207.89726 Y434.62753 F18000
G1 X207.49083 Y434.62753 F18000
G1 X207.49083 Y472.12563 F18000
G0 Z0
G1 X209.09082 Y472.12563 F4000
G1 Z2 F4000
G1 X209.09082 Y472.12563 F18000
G1 X209.09082 Y434.62753 F18000
G1 X209.49728 Y434.62753 F18000
G1 X209.49728 Y406.56488 F18000
G1 X209.08421 Y406.56488 F18000
G1 X209.08421 Y401.08123 F18000
G0 Z0
G1 X209.8342 Y401.08123 F4000
G1 Z2 F4000
G1 X209.8342 Y401.08123 F18000
G1 X209.8342 Y406.56488 F18000
G0 Z0
G1 X210.58421 Y406.56488 F4000
G1 Z2 F4000
G1 X210.58421 Y406.56488 F18000
G1 X210.58421 Y401.08123 F18000
G1 X210.78421 Y401.08123 F18000
G1 X210.78421 Y300.00016 F18000
G0 Z0
G1 X213.4342 Y300.00016 F4000
G1 Z2 F4000
G1 X213.4342 Y300.00016 F18000
G1 X213.4342 Y401.08123 F18000
G1 X213.58422 Y401.08123 F18000
G1 X213.58422 Y406.56488 F18000
G0 Z0
G1 X212.08421 Y406.56488 F4000
G1 Z2 F4000
G1 X212.08421 Y406.56488 F18000
G1 X212.08421 Y401.08123 F18000
G0 Z0
G1 X211.3342 Y401.08123 F4000
G1 Z2 F4000
G1 X211.3342 Y401.08123 F18000
G1 X211.3342 Y406.56488 F18000
G1 X211.09727 Y406.56488 F18000
G1 X211.09727 Y434.62753 F18000
G1 X210.69084 Y434.62753 F18000
G1 X210.69084 Y472.12563 F18000
G0 Z0
G1 X212.29083 Y472.12563 F4000
G1 Z2 F4000
G1 X212.29083 Y472.12563 F18000
G1 X212.29083 Y434.62753 F18000
G1 X212.69728 Y434.62753 F18000
G1 X212.69728 Y406.56488 F18000
G1 X212.8342 Y406.56488 F18000
G1 X212.8342 Y401.08123 F18000
G0 Z0
G1 X218.0842 Y401.08123 F4000
G1 Z2 F4000
G1 X218.0842 Y401.08123 F18000
G1 X218.0842 Y406.56488 F18000
G0 Z0
G1 X219.5842 Y406.56488 F4000
G1 Z2 F4000
G1 X219.5842 Y406.56488 F18000
G1 X219.5842 Y401.08123 F18000
G0 Z0
G1 X220.33422 Y401.08123 F4000
G1 Z2 F4000
G1 X220.33422 Y401.08123 F18000
G1 X220.33422 Y406.56488 F18000
G0 Z0
G1 X227.83421 Y406.56488 F4000
G1 Z2 F4000
G1 X227.83421 Y406.56488 F18000
G1 X227.83421 Y401.08123 F18000
G0 Z0
G1 X228.58422 Y401.08123 F4000
G1 Z2 F4000
G1 X228.58422 Y401.08123 F18000
G1 X228.69728 Y434.62753 F18000
G1 X228.29085 Y434.62753 F18000
G1 X228.37084 Y507.00334 F18000
G1 X228.12252 Y507.00334 F18000
G1 X228.12252 Y547.19796 F18000
G0 Z0
G1 X229.07254 Y547.19796 F4000
G1 Z2 F4000
G1 X229.07254 Y547.19796 F18000
G1 X229.07254 Y550.0003 F18000
G0 Z0
G1 X227.47255 Y550.0003 F4000
G1 Z2 F4000
G1 X227.47255 Y550.0003 F18000
G1 X227.47255 Y547.19796 F18000
G0 Z0
G1 X224.27254 Y547.19796 F4000
G1 Z2 F4000
G1 X224.27254 Y547.19796 F18000
G1 X224.27254 Y550.0003 F18000
G0 Z0
G1 X225.87253 Y550.0003 F4000
G1 Z2 F4000
G1 X225.87253 Y550.0003 F18000
G1 X225.87253 Y547.19796 F18000
G1 X225.47254 Y547.19796 F18000
G1 X225.47254 Y507.00334 F18000
G0 Z0
G1 X230.77254 Y507.00334 F4000
G1 Z2 F4000
G1 X230.77254 Y507.00334 F18000
G1 X230.67253 Y550.0003 F18000
G0 Z0
G1 X232.27254 Y547.19796 F4000
G1 Z2 F4000
G1 X232.27254 Y547.19796 F18000
G1 X232.27254 Y550.0003 F18000
G0 Z0
G1 X233.87253 Y550.0003 F4000
G1 Z2 F4000
G1 X233.87253 Y550.0003 F18000
G1 X233.87253 Y547.19796 F18000
G1 X233.42253 Y547.19796 F18000
G1 X233.42253 Y507.00334 F18000
G0 Z0
G1 X232.01084 Y507.00334 F4000
G1 Z2 F4000
G1 X232.01084 Y507.00334 F18000
G1 X232.01084 Y472.12563 F18000
G0 Z0
G1 X233.09085 Y472.12563 F4000
G1 Z2 F4000
G1 X233.09085 Y472.12563 F18000
G1 X233.09085 Y434.62753 F18000
G1 X233.49727 Y434.62753 F18000
G1 X233.49727 Y406.56488 F18000
G1 X233.0842 Y406.56488 F18000
G1 X233.0842 Y401.08123 F18000
G0 Z0
G1 X231.58423 Y401.08123 F4000
G1 Z2 F4000
G1 X231.58423 Y401.08123 F18000
G1 X231.58423 Y406.56488 F18000
G0 Z0
G1 X233.83422 Y406.56488 F4000
G1 Z2 F4000
G1 X233.83422 Y406.56488 F18000
G1 X233.83422 Y401.08123 F18000
G0 Z0
G1 X235.33422 Y401.08123 F4000
G1 Z2 F4000
G1 X235.33422 Y401.08123 F18000
G1 X235.33422 Y406.56488 F18000
G1 X235.09729 Y406.56488 F18000
G1 X235.09729 Y434.62753 F18000
G1 X234.69084 Y434.62753 F18000
G1 X234.69084 Y472.12563 F18000
G0 Z0
G1 X235.65085 Y472.12563 F4000
G1 Z2 F4000
G1 X235.65085 Y472.12563 F18000
G1 X235.65085 Y507.00334 F18000
G1 X236.07254 Y507.00334 F18000
G1 X236.07254 Y547.19796 F18000
G0 Z0
G1 X235.47255 Y547.19796 F4000
G1 Z2 F4000
G1 X235.47255 Y547.19796 F18000
G1 X235.47255 Y550.0003 F18000
G0 Z0
G1 X237.07254 Y550.0003 F4000
G1 Z2 F4000
G1 X237.07254 Y550.0003 F18000
G1 X237.07254 Y547.19796 F18000
G0 Z0
G1 X238.67255 Y550.0003 F4000
G1 Z2 F4000
G1 X238.67255 Y550.0003 F18000
G1 X238.72253 Y507.00334 F18000
G0 Z0
G1 X239.29086 Y507.00334 F4000
G1 Z2 F4000
G1 X239.29086 Y507.00334 F18000
G1 X239.29086 Y472.12563 F18000
G1 X239.49086 Y472.12563 F18000
G1 X239.49086 Y434.62753 F18000
G1 X239.89728 Y434.62753 F18000
G1 X239.93422 Y300.00016 F18000
G0 Z0
G1 X237.28423 Y300.00016 F4000
G1 Z2 F4000
G1 X237.28423 Y300.00016 F18000
G1 X237.28423 Y401.08123 F18000
G1 X237.58421 Y401.08123 F18000
G1 X237.58421 Y406.56488 F18000
G0 Z0
G1 X239.08422 Y406.56488 F4000
G1 Z2 F4000
G1 X239.08422 Y406.56488 F18000
G1 X239.08422 Y401.08123 F18000
G0 Z0
G1 X244.33421 Y401.08123 F4000
G1 Z2 F4000
G1 X244.33421 Y401.08123 F18000
G1 X244.33421 Y406.56488 F18000
G0 Z0
G1 X243.58423 Y406.56488 F4000
G1 Z2 F4000
G1 X243.58423 Y406.56488 F18000
G1 X243.58423 Y401.08123 F18000
G0 Z0
G1 X242.08422 Y401.08123 F4000
G1 Z2 F4000
G1 X242.08422 Y401.08123 F18000
G1 X242.08422 Y406.56488 F18000
G0 Z0
G1 X251.83423 Y406.56488 F4000
G1 Z2 F4000
G1 X251.83423 Y406.56488 F18000
G1 X251.83423 Y401.08123 F18000
G0 Z0
G1 X252.58422 Y401.08123 F4000
G1 Z2 F4000
G1 X252.58422 Y401.08123 F18000
G1 X252.6973 Y434.62753 F18000
G1 X252.29085 Y434.62753 F18000
G1 X252.29085 Y472.12563 F18000
G0 Z0
G1 X255.49085 Y472.12563 F4000
G1 Z2 F4000
G1 X255.49085 Y472.12563 F18000
G1 X255.49085 Y434.62753 F18000
G1 X255.89731 Y434.62753 F18000
G1 X255.89731 Y406.56488 F18000
G1 X255.58422 Y406.56488 F18000
G1 X255.58422 Y401.08123 F18000
G1 X255.83423 Y401.08123 F18000
G1 X255.83423 Y300.00016 F18000
G0 Z0
G1 X253.18421 Y300.00016 F4000
G1 Z2 F4000
G1 X253.18421 Y300.00016 F18000
G1 X253.18421 Y401.08123 F18000
G1 X253.33423 Y401.08123 F18000
G1 X253.33423 Y406.56488 F18000
G0 Z0
G1 X254.83424 Y406.56488 F4000
G1 Z2 F4000
G1 X254.83424 Y406.56488 F18000
G1 X254.83424 Y401.08123 F18000
G0 Z0
G1 X254.08422 Y401.08123 F4000
G1 Z2 F4000
G1 X254.08422 Y401.08123 F18000
G1 X254.08422 Y406.56488 F18000
G1 X254.29729 Y406.56488 F18000
G1 X254.29729 Y434.62753 F18000
G1 X253.89086 Y434.62753 F18000
G1 X253.85086 Y507.00334 F18000
G0 Z0
G1 X254.62254 Y507.00334 F4000
G1 Z2 F4000
G1 X254.62254 Y507.00334 F18000
G1 X254.67255 Y550.0003 F18000
G0 Z0
G1 X257.27256 Y547.19796 F4000
G1 Z2 F4000
G1 X257.27256 Y547.19796 F18000
G1 X257.27256 Y507.00334 F18000
G1 X257.49087 Y507.00334 F18000
G1 X257.49087 Y472.12563 F18000
G1 X257.09087 Y472.12563 F18000
G1 X257.09087 Y434.62753 F18000
G1 X257.4973 Y434.62753 F18000
G1 X257.4973 Y406.56488 F18000
G1 X257.08423 Y406.56488 F18000
G1 X257.08423 Y401.08123 F18000
G0 Z0
G1 X256.33424 Y401.08123 F4000
G1 Z2 F4000
G1 X256.33424 Y401.08123 F18000
G1 X256.33424 Y406.56488 F18000
G0 Z0
G1 X257.83424 Y406.56488 F4000
G1 Z2 F4000
G1 X257.83424 Y406.56488 F18000
G1 X257.83424 Y401.08123 F18000
G0 Z0
G1 X259.33422 Y401.08123 F4000
G1 Z2 F4000
G1 X259.33422 Y401.08123 F18000
G1 X259.33422 Y406.56488 F18000
G1 X259.09728 Y406.56488 F18000
G1 X259.09728 Y434.62753 F18000
G1 X258.69086 Y434.62753 F18000
G1 X258.69086 Y472.12563 F18000
G0 Z0
G1 X260.29085 Y472.12563 F4000
G1 Z2 F4000
G1 X260.29085 Y472.12563 F18000
G1 X260.29085 Y434.62753 F18000
G1 X260.6973 Y434.62753 F18000
G1 X260.6973 Y406.56488 F18000
G1 X260.83422 Y406.56488 F18000
G1 X260.83422 Y401.08123 F18000
G1 X261.13423 Y401.08123 F18000
G1 X261.13423 Y300.00016 F18000
G0 Z0
G1 X258.48422 Y300.00016 F4000
G1 Z2 F4000
G1 X258.48422 Y300.00016 F18000
G1 X258.58423 Y406.56488 F18000
G0 Z0
G1 X260.08423 Y406.56488 F4000
G1 Z2 F4000
G1 X260.08423 Y406.56488 F18000
G1 X260.08423 Y401.08123 F18000
G0 Z0
G1 X261.58424 Y401.08123 F4000
G1 Z2 F4000
G1 X261.58424 Y401.08123 F18000
G1 X261.58424 Y406.56488 F18000
G0 Z0
G1 X263.08424 Y406.56488 F4000
G1 Z2 F4000
G1 X263.08424 Y406.56488 F18000
G1 X263.08424 Y401.08123 F18000
G0 Z0
G1 X262.33423 Y401.08123 F4000
G1 Z2 F4000
G1 X262.33423 Y401.08123 F18000
G1 X262.29729 Y434.62753 F18000
G1 X261.89086 Y434.62753 F18000
G1 X261.89086 Y472.12563 F18000
G0 Z0
G1 X261.13085 Y472.12563 F4000
G1 Z2 F4000
G1 X261.13085 Y472.12563 F18000
G1 X261.13085 Y507.00334 F18000
G0 Z0
G1 X259.92255 Y507.00334 F4000
G1 Z2 F4000
G1 X259.92255 Y507.00334 F18000
G1 X259.92255 Y547.19796 F18000
G1 X259.47254 Y547.19796 F18000
G1 X259.47254 Y550.0003 F18000
G0 Z0
G1 X267.47257 Y550.0003 F4000
G1 Z2 F4000
G1 X267.47257 Y550.0003 F18000
G1 X267.47257 Y547.19796 F18000
G0 Z0
G1 X265.87255 Y547.19796 F4000
G1 Z2 F4000
G1 X265.87255 Y547.19796 F18000
G1 X265.87255 Y550.0003 F18000
G0 Z0
G1 X264.27256 Y550.0003 F4000
G1 Z2 F4000
G1 X264.27256 Y550.0003 F18000
G1 X264.27256 Y547.19796 F18000
G0 Z0
G1 X265.22255 Y547.19796 F4000
G1 Z2 F4000
G1 X265.22255 Y547.19796 F18000
G1 X265.22255 Y507.00334 F18000
G1 X264.77085 Y507.00334 F18000
G1 X264.77085 Y472.12563 F18000
G1 X265.09087 Y472.12563 F18000
G1 X265.09087 Y434.62753 F18000
G1 X265.49729 Y434.62753 F18000
G1 X265.49729 Y406.56488 F18000
G1 X265.33423 Y406.56488 F18000
G1 X265.33423 Y401.08123 F18000
G0 Z0
G1 X264.58424 Y401.08123 F4000
G1 Z2 F4000
G1 X264.58424 Y401.08123 F18000
G1 X264.58424 Y406.56488 F18000
G0 Z0
G1 X266.08425 Y406.56488 F4000
G1 Z2 F4000
G1 X266.08425 Y406.56488 F18000
G1 X266.08425 Y401.08123 F18000
G1 X266.43424 Y401.08123 F18000
G1 X266.43424 Y300.00016 F18000
G0 Z0
G1 X263.78422 Y300.00016 F4000
G1 Z2 F4000
G1 X263.78422 Y300.00016 F18000
G1 X263.89731 Y434.62753 F18000
G1 X263.49085 Y434.62753 F18000
G1 X263.49085 Y472.12563 F18000
G0 Z0
G1 X266.69086 Y472.12563 F4000
G1 Z2 F4000
G1 X266.69086 Y472.12563 F18000
G1 X266.69086 Y434.62753 F18000
G1 X267.09731 Y434.62753 F18000
G1 X267.09731 Y406.56488 F18000
G1 X266.83423 Y406.56488 F18000
G1 X266.83423 Y401.08123 F18000
G0 Z0
G1 X267.58422 Y401.08123 F4000
G1 Z2 F4000
G1 X267.58422 Y401.08123 F18000
G1 X267.58422 Y406.56488 F18000
G0 Z0
G1 X268.33424 Y406.56488 F4000
G1 Z2 F4000
G1 X268.33424 Y406.56488 F18000
G1 X268.33424 Y401.08123 F18000
G0 Z0
G1 X269.08423 Y401.08123 F4000
G1 Z2 F4000
G1 X269.08423 Y401.08123 F18000
G1 X269.08423 Y406.56488 F18000
G0 Z0
G1 X268.29087 Y434.62753 F4000
G1 Z2 F4000
G1 X268.29087 Y434.62753 F18000
G1 X268.29087 Y472.12563 F18000
G0 Z0
G1 X262.57256 Y507.00334 F4000
G1 Z2 F4000
G1 X262.57256 Y507.00334 F18000
G1 X262.67255 Y550.0003 F18000
G0 Z0
G1 X261.07256 Y550.0003 F4000
G1 Z2 F4000
G1 X261.07256 Y550.0003 F18000
G1 X261.07256 Y547.19796 F18000
G0 Z0
G1 X257.87255 Y547.19796 F4000
G1 Z2 F4000
G1 X257.87255 Y547.19796 F18000
G1 X257.87255 Y550.0003 F18000
G0 Z0
G1 X256.27257 Y550.0003 F4000
G1 Z2 F4000
G1 X256.27257 Y550.0003 F18000
G1 X256.27257 Y547.19796 F18000
G0 Z0
G1 X253.07256 Y550.0003 F4000
G1 Z2 F4000
G1 X253.07256 Y550.0003 F18000
G1 X253.07256 Y547.19796 F18000
G0 Z0
G1 X251.97255 Y547.19796 F4000
G1 Z2 F4000
G1 X251.97255 Y547.19796 F18000
G1 X251.97255 Y507.00334 F18000
G0 Z0
G1 X250.21085 Y507.00334 F4000
G1 Z2 F4000
G1 X250.21085 Y507.00334 F18000
G1 X250.21085 Y472.12563 F18000
G1 X250.69086 Y472.12563 F18000
G1 X250.69086 Y434.62753 F18000
G1 X251.09729 Y434.62753 F18000
G1 X251.08422 Y401.08123 F18000
G0 Z0
G1 X249.58424 Y401.08123 F4000
G1 Z2 F4000
G1 X249.58424 Y401.08123 F18000
G1 X249.4973 Y434.62753 F18000
G1 X249.09084 Y434.62753 F18000
G1 X249.09084 Y472.12563 F18000
G0 Z0
G1 X247.49085 Y472.12563 F4000
G1 Z2 F4000
G1 X247.49085 Y472.12563 F18000
G1 X247.49085 Y434.62753 F18000
G1 X247.89728 Y434.62753 F18000
G1 X247.89728 Y406.56488 F18000
G1 X248.08424 Y406.56488 F18000
G1 X248.08424 Y401.08123 F18000
G1 X247.88424 Y401.08123 F18000
G1 X247.88424 Y300.00016 F18000
G0 Z0
G1 X250.53423 Y300.00016 F4000
G1 Z2 F4000
G1 X250.53423 Y300.00016 F18000
G1 X250.53423 Y401.08123 F18000
G1 X250.33423 Y401.08123 F18000
G1 X250.33423 Y406.56488 F18000
G0 Z0
G1 X248.83422 Y406.56488 F4000
G1 Z2 F4000
G1 X248.83422 Y406.56488 F18000
G1 X248.83422 Y401.08123 F18000
G0 Z0
G1 X247.33422 Y401.08123 F4000
G1 Z2 F4000
G1 X247.33422 Y401.08123 F18000
G1 X247.33422 Y406.56488 F18000
G0 Z0
G1 X246.58423 Y406.56488 F4000
G1 Z2 F4000
G1 X246.58423 Y406.56488 F18000
G1 X246.58423 Y401.08123 F18000
G0 Z0
G1 X245.83422 Y401.08123 F4000
G1 Z2 F4000
G1 X245.83422 Y401.08123 F18000
G1 X245.83422 Y406.56488 F18000
G1 X246.29729 Y406.56488 F18000
G1 X246.29729 Y434.62753 F18000
G1 X245.89084 Y434.62753 F18000
G1 X245.89084 Y472.12563 F18000
G0 Z0
G1 X246.57084 Y472.12563 F4000
G1 Z2 F4000
G1 X246.57084 Y472.12563 F18000
G1 X246.67255 Y550.0003 F18000
G0 Z0
G1 X248.27254 Y550.0003 F4000
G1 Z2 F4000
G1 X248.27254 Y550.0003 F18000
G1 X248.27254 Y547.19796 F18000
G0 Z0
G1 X251.47254 Y547.19796 F4000
G1 Z2 F4000
G1 X251.47254 Y547.19796 F18000
G1 X251.47254 Y550.0003 F18000
G0 Z0
G1 X249.87256 Y550.0003 F4000
G1 Z2 F4000
G1 X249.87256 Y550.0003 F18000
G1 X249.87256 Y547.19796 F18000
G0 Z0
G1 X249.32254 Y547.19796 F4000
G1 Z2 F4000
G1 X249.32254 Y547.19796 F18000
G1 X249.32254 Y507.00334 F18000
G0 Z0
G1 X244.02254 Y507.00334 F4000
G1 Z2 F4000
G1 X244.02254 Y507.00334 F18000
G1 X244.02254 Y547.19796 F18000
G0 Z0
G1 X245.07254 Y547.19796 F4000
G1 Z2 F4000
G1 X245.07254 Y547.19796 F18000
G1 X245.07254 Y550.0003 F18000
G0 Z0
G1 X243.47255 Y550.0003 F4000
G1 Z2 F4000
G1 X243.47255 Y550.0003 F18000
G1 X243.47255 Y547.19796 F18000
G0 Z0
G1 X241.87256 Y547.19796 F4000
G1 Z2 F4000
G1 X241.87256 Y547.19796 F18000
G1 X241.87256 Y550.0003 F18000
G0 Z0
G1 X240.27254 Y550.0003 F4000
G1 Z2 F4000
G1 X240.27254 Y550.0003 F18000
G1 X240.27254 Y547.19796 F18000
G0 Z0
G1 X241.37255 Y547.19796 F4000
G1 Z2 F4000
G1 X241.37255 Y547.19796 F18000
G1 X241.37255 Y507.00334 F18000
G0 Z0
G1 X242.93084 Y507.00334 F4000
G1 Z2 F4000
G1 X242.93084 Y507.00334 F18000
G1 X242.93084 Y472.12563 F18000
G1 X242.69086 Y472.12563 F18000
G1 X242.69086 Y434.62753 F18000
G1 X243.09729 Y434.62753 F18000
G1 X243.09729 Y406.56488 F18000
G1 X242.83421 Y406.56488 F18000
G1 X242.83421 Y401.08123 F18000
G1 X242.58423 Y401.08123 F18000
G1 X242.58423 Y300.00016 F18000
G0 Z0
G1 X245.23422 Y300.00016 F4000
G1 Z2 F4000
G1 X245.23422 Y300.00016 F18000
G1 X245.23422 Y401.08123 F18000
G1 X245.08423 Y401.08123 F18000
G1 X245.08423 Y406.56488 F18000
G1 X244.6973 Y406.56488 F18000
G1 X244.6973 Y434.62753 F18000
G1 X244.29085 Y434.62753 F18000
G1 X244.29085 Y472.12563 F18000
G0 Z0
G1 X241.09084 Y472.12563 F4000
G1 Z2 F4000
G1 X241.09084 Y472.12563 F18000
G1 X241.09084 Y434.62753 F18000
G1 X241.4973 Y434.62753 F18000
G1 X241.4973 Y406.56488 F18000
G1 X241.33421 Y406.56488 F18000
G1 X241.33421 Y401.08123 F18000
G0 Z0
G1 X240.58422 Y401.08123 F4000
G1 Z2 F4000
G1 X240.58422 Y401.08123 F18000
G1 X240.58422 Y406.56488 F18000
G0 Z0
G1 X238.33423 Y401.08123 F4000
G1 Z2 F4000
G1 X238.33423 Y401.08123 F18000
G1 X238.29729 Y434.62753 F18000
G1 X237.89084 Y434.62753 F18000
G1 X237.89084 Y472.12563 F18000
G0 Z0
G1 X236.29085 Y472.12563 F4000
G1 Z2 F4000
G1 X236.29085 Y472.12563 F18000
G1 X236.29085 Y434.62753 F18000
G1 X236.69728 Y434.62753 F18000
G1 X236.69728 Y406.56488 F18000
G1 X236.83423 Y406.56488 F18000
G1 X236.83423 Y401.08123 F18000
G0 Z0
G1 X236.08421 Y401.08123 F4000
G1 Z2 F4000
G1 X236.08421 Y401.08123 F18000
G1 X236.08421 Y406.56488 F18000
G0 Z0
G1 X234.58421 Y406.56488 F4000
G1 Z2 F4000
G1 X234.58421 Y406.56488 F18000
G1 X234.63421 Y300.00016 F18000
G0 Z0
G1 X231.98423 Y300.00016 F4000
G1 Z2 F4000
G1 X231.98423 Y300.00016 F18000
G1 X231.98423 Y401.08123 F18000
G1 X232.33422 Y401.08123 F18000
G1 X232.33422 Y406.56488 F18000
G1 X231.89728 Y406.56488 F18000
G1 X231.89728 Y434.62753 F18000
G1 X231.49083 Y434.62753 F18000
G1 X231.49083 Y472.12563 F18000
G0 Z0
G1 X229.89084 Y472.12563 F4000
G1 Z2 F4000
G1 X229.89084 Y472.12563 F18000
G1 X229.89084 Y434.62753 F18000
G1 X230.29729 Y434.62753 F18000
G1 X230.29729 Y406.56488 F18000
G1 X230.08423 Y406.56488 F18000
G1 X230.08423 Y401.08123 F18000
G0 Z0
G1 X230.83421 Y401.08123 F4000
G1 Z2 F4000
G1 X230.83421 Y401.08123 F18000
G1 X230.83421 Y406.56488 F18000
G0 Z0
G1 X229.33421 Y406.56488 F4000
G1 Z2 F4000
G1 X229.33421 Y406.56488 F18000
G1 X229.33421 Y300.00016 F18000
G0 Z0
G1 X226.68422 Y300.00016 F4000
G1 Z2 F4000
G1 X226.68422 Y300.00016 F18000
G1 X226.68422 Y401.08123 F18000
G1 X226.3342 Y401.08123 F18000
G1 X226.3342 Y406.56488 F18000
G0 Z0
G1 X224.8342 Y406.56488 F4000
G1 Z2 F4000
G1 X224.8342 Y406.56488 F18000
G1 X224.8342 Y401.08123 F18000
G0 Z0
G1 X223.33422 Y401.08123 F4000
G1 Z2 F4000
G1 X223.33422 Y401.08123 F18000
G1 X223.33422 Y406.56488 F18000
G0 Z0
G1 X222.58421 Y406.56488 F4000
G1 Z2 F4000
G1 X222.58421 Y406.56488 F18000
G1 X222.58421 Y401.08123 F18000
G0 Z0
G1 X221.83422 Y401.08123 F4000
G1 Z2 F4000
G1 X221.83422 Y401.08123 F18000
G1 X221.83422 Y406.56488 F18000
G1 X222.29727 Y406.56488 F18000
G1 X222.29727 Y434.62753 F18000
G1 X221.89084 Y434.62753 F18000
G1 X221.89084 Y472.12563 F18000
G0 Z0
G1 X221.09085 Y472.12563 F4000
G1 Z2 F4000
G1 X221.09085 Y472.12563 F18000
G1 X221.09085 Y507.00334 F18000
G0 Z0
G1 X220.17253 Y507.00334 F4000
G1 Z2 F4000
G1 X220.17253 Y507.00334 F18000
G1 X220.17253 Y547.19796 F18000
G0 Z0
G1 X219.47252 Y547.19796 F4000
G1 Z2 F4000
G1 X219.47252 Y547.19796 F18000
G1 X219.47252 Y550.0003 F18000
G0 Z0
G1 X217.87253 Y550.0003 F4000
G1 Z2 F4000
G1 X217.87253 Y550.0003 F18000
G1 X217.87253 Y547.19796 F18000
G1 X217.52254 Y547.19796 F18000
G1 X217.45084 Y472.12563 F18000
G1 X217.09082 Y472.12563 F18000
G1 X217.09082 Y434.62753 F18000
G1 X217.49727 Y434.62753 F18000
G1 X217.49727 Y406.56488 F18000
G1 X217.33421 Y406.56488 F18000
G1 X217.33421 Y401.08123 F18000
G0 Z0
G1 X216.5842 Y401.08123 F4000
G1 Z2 F4000
G1 X216.5842 Y401.08123 F18000
G1 X216.5842 Y406.56488 F18000
G0 Z0
G1 X215.08419 Y406.56488 F4000
G1 Z2 F4000
G1 X215.08419 Y406.56488 F18000
G1 X215.08419 Y401.08123 F18000
G0 Z0
G1 X214.33421 Y401.08123 F4000
G1 Z2 F4000
G1 X214.33421 Y401.08123 F18000
G1 X214.29727 Y434.62753 F18000
G1 X213.89084 Y434.62753 F18000
G1 X213.81083 Y507.00334 F18000
G0 Z0
G1 X214.87253 Y507.00334 F4000
G1 Z2 F4000
G1 X214.87253 Y507.00334 F18000
G1 X214.87253 Y547.19796 F18000
G1 X214.67253 Y547.19796 F18000
G1 X214.67253 Y550.0003 F18000
G0 Z0
G1 X213.07254 Y550.0003 F4000
G1 Z2 F4000
G1 X213.07254 Y550.0003 F18000
G1 X213.07254 Y547.19796 F18000
G0 Z0
G1 X216.27252 Y547.19796 F4000
G1 Z2 F4000
G1 X216.27252 Y547.19796 F18000
G1 X216.27252 Y550.0003 F18000
G0 Z0
G1 X221.07254 Y547.19796 F4000
G1 Z2 F4000
G1 X221.07254 Y547.19796 F18000
G1 X221.07254 Y550.0003 F18000
G0 Z0
G1 X222.67253 Y550.0003 F4000
G1 Z2 F4000
G1 X222.67253 Y550.0003 F18000
G1 X222.67253 Y547.19796 F18000
G1 X222.82255 Y547.19796 F18000
G1 X222.82255 Y507.00334 F18000
G0 Z0
G1 X224.73083 Y507.00334 F4000
G1 Z2 F4000
G1 X224.73083 Y507.00334 F18000
G1 X224.73083 Y472.12563 F18000
G1 X225.09085 Y472.12563 F18000
G1 X225.09085 Y434.62753 F18000
G1 X225.49727 Y434.62753 F18000
G1 X225.58422 Y401.08123 F18000
G0 Z0
G1 X227.08422 Y401.08123 F4000
G1 Z2 F4000
G1 X227.08422 Y401.08123 F18000
G1 X227.09729 Y434.62753 F18000
G1 X226.69084 Y434.62753 F18000
G1 X226.69084 Y472.12563 F18000
G0 Z0
G1 X223.49083 Y472.12563 F4000
G1 Z2 F4000
G1 X223.49083 Y472.12563 F18000
G1 X223.49083 Y434.62753 F18000
G1 X223.89728 Y434.62753 F18000
G1 X223.89728 Y406.56488 F18000
G1 X224.08421 Y406.56488 F18000
G1 X224.03421 Y300.00016 F18000
G0 Z0
G1 X221.38422 Y300.00016 F4000
G1 Z2 F4000
G1 X221.38422 Y300.00016 F18000
G1 X221.38422 Y401.08123 F18000
G1 X221.08421 Y401.08123 F18000
G1 X221.08421 Y406.56488 F18000
G1 X220.69728 Y406.56488 F18000
G1 X220.69728 Y434.62753 F18000
G1 X220.29083 Y434.62753 F18000
G1 X220.29083 Y472.12563 F18000
G0 Z0
G1 X218.69084 Y472.12563 F4000
G1 Z2 F4000
G1 X218.69084 Y472.12563 F18000
G1 X218.69084 Y434.62753 F18000
G1 X219.09726 Y434.62753 F18000
G1 X219.09726 Y406.56488 F18000
G1 X218.83422 Y406.56488 F18000
G1 X218.7342 Y401.08123 F18000
G1 X218.7342 Y300.00016 F18000
G0 Z0
G1 X216.08421 Y300.00016 F4000
G1 Z2 F4000
G1 X216.08421 Y300.00016 F18000
G1 X216.08421 Y401.08123 F18000
G1 X215.83421 Y401.08123 F18000
G1 X215.89729 Y434.62753 F18000
G1 X215.49083 Y434.62753 F18000
G1 X215.49083 Y472.12563 F18000
G0 Z0
G1 X210.17083 Y472.12563 F4000
G1 Z2 F4000
G1 X210.17083 Y472.12563 F18000
G1 X210.17083 Y507.00334 F18000
G0 Z0
G1 X212.22254 Y507.00334 F4000
G1 Z2 F4000
G1 X212.22254 Y507.00334 F18000
G1 X212.22254 Y547.19796 F18000
G0 Z0
G1 X211.47252 Y547.19796 F4000
G1 Z2 F4000
G1 X211.47252 Y547.19796 F18000
G1 X211.47252 Y550.0003 F18000
G0 Z0
G1 X209.87253 Y550.0003 F4000
G1 Z2 F4000
G1 X209.87253 Y550.0003 F18000
G1 X209.87253 Y547.19796 F18000
G1 X209.57252 Y547.19796 F18000
G1 X209.57252 Y507.00334 F18000
G0 Z0
G1 X201.62253 Y507.00334 F4000
G1 Z2 F4000
G1 X201.62253 Y507.00334 F18000
G1 X201.62253 Y547.19796 F18000
G1 X201.87254 Y547.19796 F18000
G1 X201.87254 Y550.0003 F18000
G0 Z0
G1 X200.27252 Y550.0003 F4000
G1 Z2 F4000
G1 X200.27252 Y550.0003 F18000
G1 X200.27252 Y547.19796 F18000
G0 Z0
G1 X197.07252 Y547.19796 F4000
G1 Z2 F4000
G1 X197.07252 Y547.19796 F18000
G1 X197.07252 Y550.0003 F18000
G0 Z0
G1 X198.67253 Y550.0003 F4000
G1 Z2 F4000
G1 X198.67253 Y550.0003 F18000
G1 X198.67253 Y547.19796 F18000
G1 X198.97252 Y547.19796 F18000
G1 X198.97252 Y507.00334 F18000
G1 X199.25083 Y507.00334 F18000
G1 X199.25083 Y472.12563 F18000
G1 X199.49083 Y472.12563 F18000
G1 X199.49083 Y434.62753 F18000
G1 X199.89726 Y434.62753 F18000
G1 X199.89726 Y406.56488 F18000
G1 X200.08419 Y406.56488 F18000
G1 X200.1842 Y401.08123 F18000
G1 X200.1842 Y300.00016 F18000
G0 Z0
G1 X202.83419 Y300.00016 F4000
G1 Z2 F4000
G1 X202.83419 Y300.00016 F18000
G1 X202.83419 Y401.08123 F18000
G1 X203.0842 Y401.08123 F18000
G1 X203.09727 Y406.56488 F18000
G1 X203.09727 Y434.62753 F18000
G1 X202.69084 Y434.62753 F18000
G1 X202.69084 Y472.12563 F18000
G1 X202.89084 Y472.12563 F18000
G1 X202.89084 Y507.00334 F18000
G0 Z0
G1 X204.27252 Y507.00334 F4000
G1 Z2 F4000
G1 X204.27252 Y507.00334 F18000
G1 X204.27252 Y547.19796 F18000
G0 Z0
G1 X203.47252 Y547.19796 F4000
G1 Z2 F4000
G1 X203.47252 Y547.19796 F18000
G1 X203.47252 Y550.0003 F18000
G0 Z0
G1 X205.07251 Y550.0003 F4000
G1 Z2 F4000
G1 X205.07251 Y550.0003 F18000
G1 X205.07251 Y547.19796 F18000
G0 Z0
G1 X208.27252 Y547.19796 F4000
G1 Z2 F4000
G1 X208.27252 Y547.19796 F18000
G1 X208.27252 Y550.0003 F18000
G0 Z0
G1 X206.67253 Y550.0003 F4000
G1 Z2 F4000
G1 X206.67253 Y550.0003 F18000
G1 X206.67253 Y547.19796 F18000
G1 X206.92253 Y547.19796 F18000
G1 X206.92253 Y507.00334 F18000
G1 X206.53082 Y507.00334 F18000
G1 X206.53082 Y472.12563 F18000
G0 Z0
G1 X205.89082 Y472.12563 F4000
G1 Z2 F4000
G1 X205.89082 Y472.12563 F18000
G1 X205.89082 Y434.62753 F18000
G1 X206.29727 Y434.62753 F18000
G1 X206.29727 Y406.56488 F18000
G1 X206.0842 Y406.56488 F18000
G1 X206.0842 Y401.08123 F18000
G0 Z0
G1 X206.83419 Y401.08123 F4000
G1 Z2 F4000
G1 X206.83419 Y401.08123 F18000
G1 X206.83419 Y406.56488 F18000
G0 Z0
G1 X207.58421 Y406.56488 F4000
G1 Z2 F4000
G1 X207.58421 Y406.56488 F18000
G1 X207.58421 Y401.08123 F18000
G0 Z0
G1 X204.5842 Y401.08123 F4000
G1 Z2 F4000
G1 X204.5842 Y401.08123 F18000
G1 X204.69726 Y434.62753 F18000
G1 X204.29083 Y434.62753 F18000
G1 X204.29083 Y472.12563 F18000
G0 Z0
G1 X201.09082 Y472.12563 F4000
G1 Z2 F4000
G1 X201.09082 Y472.12563 F18000
G1 X201.09082 Y434.62753 F18000
G1 X201.49728 Y434.62753 F18000
G1 X201.58419 Y401.08123 F18000
G0 Z0
G1 X196.33419 Y401.08123 F4000
G1 Z2 F4000
G1 X196.33419 Y401.08123 F18000
G1 X196.33419 Y406.56488 F18000
G1 X196.69726 Y406.56488 F18000
G1 X196.69726 Y434.62753 F18000
G1 X196.29083 Y434.62753 F18000
G1 X196.29083 Y472.12563 F18000
G0 Z0
G1 X197.89082 Y472.12563 F4000
G1 Z2 F4000
G1 X197.89082 Y472.12563 F18000
G1 X197.89082 Y434.62753 F18000
G1 X198.29727 Y434.62753 F18000
G1 X198.29727 Y406.56488 F18000
G1 X197.8342 Y406.56488 F18000
G1 X197.8342 Y401.08123 F18000
G1 X197.53419 Y401.08123 F18000
G1 X197.53419 Y300.00016 F18000
G0 Z0
G1 X194.8842 Y300.00016 F4000
G1 Z2 F4000
G1 X194.8842 Y300.00016 F18000
G1 X194.83419 Y406.56488 F18000
G1 X195.09727 Y406.56488 F18000
G1 X195.09727 Y434.62753 F18000
G1 X194.69081 Y434.62753 F18000
G1 X194.69081 Y472.12563 F18000
G0 Z0
G1 X195.61082 Y472.12563 F4000
G1 Z2 F4000
G1 X195.61082 Y472.12563 F18000
G1 X195.61082 Y507.00334 F18000
G0 Z0
G1 X196.32253 Y507.00334 F4000
G1 Z2 F4000
G1 X196.32253 Y507.00334 F18000
G1 X196.32253 Y547.19796 F18000
G0 Z0
G1 X195.47253 Y547.19796 F4000
G1 Z2 F4000
G1 X195.47253 Y547.19796 F18000
G1 X195.47253 Y550.0003 F18000
G0 Z0
G1 X190.67251 Y550.0003 F4000
G1 Z2 F4000
G1 X190.67251 Y550.0003 F18000
G1 X190.67251 Y547.19796 F18000
G1 X191.02252 Y547.19796 F18000
G1 X191.02252 Y507.00334 F18000
G0 Z0
G1 X185.72252 Y507.00334 F4000
G1 Z2 F4000
G1 X185.72252 Y507.00334 F18000
G1 X185.72252 Y547.19796 F18000
G1 X185.87251 Y547.19796 F18000
G1 X185.87251 Y550.0003 F18000
G0 Z0
G1 X184.27252 Y550.0003 F4000
G1 Z2 F4000
G1 X184.27252 Y550.0003 F18000
G1 X184.27252 Y547.19796 F18000
G0 Z0
G1 X181.07252 Y547.19796 F4000
G1 Z2 F4000
G1 X181.07252 Y547.19796 F18000
G1 X181.07252 Y550.0003 F18000
G0 Z0
G1 X182.67251 Y550.0003 F4000
G1 Z2 F4000
G1 X182.67251 Y550.0003 F18000
G1 X182.67251 Y547.19796 F18000
G1 X183.0725 Y547.19796 F18000
G1 X183.0725 Y507.00334 F18000
G0 Z0
G1 X184.69083 Y507.00334 F4000
G1 Z2 F4000
G1 X184.69083 Y507.00334 F18000
G1 X184.69083 Y472.12563 F18000
G1 X185.09083 Y472.12563 F18000
G1 X185.09083 Y434.62753 F18000
G1 X185.49725 Y434.62753 F18000
G1 X185.49725 Y406.56488 F18000
G0 Z0
G1 X186.16649 Y406.56488 F4000
G1 Z2 F4000
G1 X186.16649 Y406.56488 F18000
G1 X186.16649 Y401.08123 F18000
G0 Z0
G1 X182.96651 Y401.08123 F4000
G1 Z2 F4000
G1 X182.96651 Y401.08123 F18000
G1 X182.96651 Y406.56488 F18000
G1 X182.76649 Y406.56488 F18000
G1 X182.76649 Y429.00281 F18000
G0 Z0
G1 X182.0165 Y429.00281 F4000
G1 Z2 F4000
G1 X182.0165 Y429.00281 F18000
G1 X182.0165 Y406.56488 F18000
G0 Z0
G1 X180.5165 Y406.56488 F4000
G1 Z2 F4000
G1 X180.5165 Y406.56488 F18000
G1 X180.5165 Y429.00281 F18000
G0 Z0
G1 X179.76651 Y429.00281 F4000
G1 Z2 F4000
G1 X179.76651 Y429.00281 F18000
G1 X179.76651 Y401.08123 F18000
G1 X179.4665 Y401.08123 F18000
G1 X179.4665 Y300.00016 F18000
G0 Z0
G1 X176.81651 Y300.00016 F4000
G1 Z2 F4000
G1 X176.81651 Y300.00016 F18000
G1 X176.81651 Y401.08123 F18000
G1 X176.5665 Y401.08123 F18000
G1 X176.5665 Y406.56488 F18000
G1 X176.7665 Y406.56488 F18000
G1 X176.7665 Y429.00281 F18000
G0 Z0
G1 X177.51649 Y429.00281 F4000
G1 Z2 F4000
G1 X177.51649 Y429.00281 F18000
G1 X177.51649 Y406.56488 F18000
G0 Z0
G1 X179.01649 Y406.56488 F4000
G1 Z2 F4000
G1 X179.01649 Y406.56488 F18000
G1 X179.0865 Y434.62753 F18000
G1 X178.69082 Y434.62753 F18000
G1 X178.69082 Y472.12563 F18000
G0 Z0
G1 X180.29081 Y472.12563 F4000
G1 Z2 F4000
G1 X180.29081 Y472.12563 F18000
G1 X180.29081 Y434.62753 F18000
G0 Z0
G1 X181.89082 Y434.62753 F4000
G1 Z2 F4000
G1 X181.89082 Y434.62753 F18000
G1 X181.89082 Y472.12563 F18000
G0 Z0
G1 X181.05082 Y472.12563 F4000
G1 Z2 F4000
G1 X181.05082 Y472.12563 F18000
G1 X181.05082 Y507.00334 F18000
G0 Z0
G1 X180.42252 Y507.00334 F4000
G1 Z2 F4000
G1 X180.42252 Y507.00334 F18000
G1 X180.42252 Y547.19796 F18000
G0 Z0
G1 X179.4725 Y547.19796 F4000
G1 Z2 F4000
G1 X179.4725 Y547.19796 F18000
G1 X179.4725 Y550.0003 F18000
G0 Z0
G1 X177.87251 Y550.0003 F4000
G1 Z2 F4000
G1 X177.87251 Y550.0003 F18000
G1 X177.7725 Y507.00334 F18000
G1 X177.41081 Y507.00334 F18000
G1 X177.41081 Y472.12563 F18000
G1 X177.0908 Y472.12563 F18000
G1 X177.0908 Y434.62753 F18000
G0 Z0
G1 X173.89082 Y434.62753 F4000
G1 Z2 F4000
G1 X173.89082 Y434.62753 F18000
G1 X173.77081 Y507.00334 F18000
G0 Z0
G1 X175.12251 Y507.00334 F4000
G1 Z2 F4000
G1 X175.12251 Y507.00334 F18000
G1 X175.12251 Y547.19796 F18000
G1 X174.67251 Y547.19796 F18000
G1 X174.67251 Y550.0003 F18000
G0 Z0
G1 X176.2725 Y550.0003 F4000
G1 Z2 F4000
G1 X176.2725 Y550.0003 F18000
G1 X176.2725 Y547.19796 F18000
G0 Z0
G1 X173.07252 Y547.19796 F4000
G1 Z2 F4000
G1 X173.07252 Y547.19796 F18000
G1 X173.07252 Y550.0003 F18000
G0 Z0
G1 X171.4725 Y550.0003 F4000
G1 Z2 F4000
G1 X171.4725 Y550.0003 F18000
G1 X171.4725 Y547.19796 F18000
G0 Z0
G1 X172.4725 Y547.19796 F4000
G1 Z2 F4000
G1 X172.4725 Y547.19796 F18000
G1 X172.4725 Y507.00334 F18000
G0 Z0
G1 X167.17249 Y507.00334 F4000
G1 Z2 F4000
G1 X167.17249 Y507.00334 F18000
G1 X167.17249 Y547.19796 F18000
G1 X166.67251 Y547.19796 F18000
G1 X166.67251 Y550.0003 F18000
G0 Z0
G1 X168.2725 Y550.0003 F4000
G1 Z2 F4000
G1 X168.2725 Y550.0003 F18000
G1 X168.2725 Y547.19796 F18000
G0 Z0
G1 X169.87251 Y550.0003 F4000
G1 Z2 F4000
G1 X169.87251 Y550.0003 F18000
G1 X169.82251 Y507.00334 F18000
G1 X170.1308 Y507.00334 F18000
G1 X170.1308 Y472.12563 F18000
G0 Z0
G1 X170.69082 Y472.12563 F4000
G1 Z2 F4000
G1 X170.69082 Y472.12563 F18000
G1 X170.69082 Y434.62753 F18000
G0 Z0
G1 X169.0908 Y434.62753 F4000
G1 Z2 F4000
G1 X169.0908 Y434.62753 F18000
G1 X169.0908 Y472.12563 F18000
G0 Z0
G1 X165.8908 Y472.12563 F4000
G1 Z2 F4000
G1 X165.8908 Y472.12563 F18000
G1 X165.8908 Y434.62753 F18000
G0 Z0
G1 X162.69079 Y434.62753 F4000
G1 Z2 F4000
G1 X162.69079 Y434.62753 F18000
G1 X162.85081 Y507.00334 F18000
G0 Z0
G1 X161.87249 Y507.00334 F4000
G1 Z2 F4000
G1 X161.87249 Y507.00334 F18000
G1 X161.87249 Y550.0003 F18000
G0 Z0
G1 X163.4725 Y547.19796 F4000
G1 Z2 F4000
G1 X163.4725 Y547.19796 F18000
G1 X163.4725 Y550.0003 F18000
G0 Z0
G1 X165.07249 Y550.0003 F4000
G1 Z2 F4000
G1 X165.07249 Y550.0003 F18000
G1 X165.07249 Y547.19796 F18000
G0 Z0
G1 X164.5225 Y547.19796 F4000
G1 Z2 F4000
G1 X164.5225 Y547.19796 F18000
G1 X164.5225 Y507.00334 F18000
G0 Z0
G1 X166.49082 Y507.00334 F4000
G1 Z2 F4000
G1 X166.49082 Y507.00334 F18000
G1 X166.49082 Y472.12563 F18000
G0 Z0
G1 X167.49081 Y472.12563 F4000
G1 Z2 F4000
G1 X167.49081 Y472.12563 F18000
G1 X167.49081 Y434.62753 F18000
G0 Z0
G1 X168.16648 Y434.62753 F4000
G1 Z2 F4000
G1 X168.16648 Y434.62753 F18000
G1 X168.16648 Y429.00281 F18000
G1 X168.5165 Y429.00281 F18000
G1 X168.5665 Y401.08123 F18000
G1 X168.86649 Y401.08123 F18000
G1 X168.86649 Y300.00016 F18000
G0 Z0
G1 X166.2165 Y300.00016 F4000
G1 Z2 F4000
G1 X166.2165 Y300.00016 F18000
G1 X166.2165 Y401.08123 F18000
G0 Z0
G1 X165.3665 Y401.08123 F4000
G1 Z2 F4000
G1 X165.3665 Y401.08123 F18000
G1 X165.3665 Y406.56488 F18000
G1 X165.51649 Y406.56488 F18000
G1 X165.51649 Y429.00281 F18000
G0 Z0
G1 X166.26648 Y429.00281 F4000
G1 Z2 F4000
G1 X166.26648 Y429.00281 F18000
G1 X166.26648 Y406.56488 F18000
G0 Z0
G1 X164.7665 Y406.56488 F4000
G1 Z2 F4000
G1 X164.7665 Y406.56488 F18000
G1 X164.7665 Y429.00281 F18000
G1 X164.5265 Y429.00281 F18000
G1 X164.5265 Y434.62753 F18000
G1 X164.29081 Y434.62753 F18000
G1 X164.29081 Y472.12563 F18000
G0 Z0
G1 X161.0908 Y472.12563 F4000
G1 Z2 F4000
G1 X161.0908 Y472.12563 F18000
G1 X161.0908 Y434.62753 F18000
G1 X160.88649 Y434.62753 F18000
G1 X160.88649 Y429.00281 F18000
G1 X161.01648 Y429.00281 F18000
G1 X161.01648 Y406.56488 F18000
G0 Z0
G1 X159.51648 Y406.56488 F4000
G1 Z2 F4000
G1 X159.51648 Y406.56488 F18000
G1 X159.51648 Y429.00281 F18000
G0 Z0
G1 X158.76649 Y429.00281 F4000
G1 Z2 F4000
G1 X158.76649 Y429.00281 F18000
G1 X158.76649 Y406.56488 F18000
G1 X158.96649 Y406.56488 F18000
G1 X158.96649 Y401.08123 F18000
G0 Z0
G1 X158.26648 Y401.08123 F4000
G1 Z2 F4000
G1 X158.26648 Y401.08123 F18000
G1 X158.26648 Y300.00016 F18000
G0 Z0
G1 X155.61649 Y300.00016 F4000
G1 Z2 F4000
G1 X155.61649 Y300.00016 F18000
G1 X155.61649 Y401.08123 F18000
G1 X155.76648 Y401.08123 F18000
G1 X155.76648 Y429.00281 F18000
G0 Z0
G1 X155.0165 Y429.00281 F4000
G1 Z2 F4000
G1 X155.0165 Y429.00281 F18000
G1 X155.0165 Y406.56488 F18000
G0 Z0
G1 X153.51649 Y406.56488 F4000
G1 Z2 F4000
G1 X153.51649 Y406.56488 F18000
G1 X153.60648 Y434.62753 F18000
G0 Z0
G1 X157.8908 Y434.62753 F4000
G1 Z2 F4000
G1 X157.8908 Y434.62753 F18000
G1 X157.8908 Y472.12563 F18000
G0 Z0
G1 X156.29081 Y472.12563 F4000
G1 Z2 F4000
G1 X156.29081 Y472.12563 F18000
G1 X156.29081 Y434.62753 F18000
G0 Z0
G1 X154.69079 Y434.62753 F4000
G1 Z2 F4000
G1 X154.69079 Y434.62753 F18000
G1 X154.69079 Y472.12563 F18000
G0 Z0
G1 X155.5708 Y472.12563 F4000
G1 Z2 F4000
G1 X155.5708 Y472.12563 F18000
G1 X155.5708 Y507.00334 F18000
G0 Z0
G1 X153.77822 Y507.00334 F4000
G1 Z2 F4000
G1 X153.77822 Y507.00334 F18000
G1 X153.77822 Y550.0003 F18000
G0 Z0
G1 X157.41823 Y550.0003 F4000
G1 Z2 F4000
G1 X157.41823 Y550.0003 F18000
G1 X157.41823 Y507.00334 F18000
G0 Z0
G1 X159.2108 Y507.00334 F4000
G1 Z2 F4000
G1 X159.2108 Y507.00334 F18000
G1 X159.2108 Y472.12563 F18000
G1 X159.49081 Y472.12563 F18000
G1 X159.49081 Y434.62753 F18000
G0 Z0
G1 X157.24648 Y434.62753 F4000
G1 Z2 F4000
G1 X157.24648 Y434.62753 F18000
G1 X157.36647 Y401.08123 F18000
G0 Z0
G1 X154.16649 Y401.08123 F4000
G1 Z2 F4000
G1 X154.16649 Y401.08123 F18000
G1 X154.26648 Y429.00281 F18000
G0 Z0
G1 X152.76648 Y429.00281 F4000
G1 Z2 F4000
G1 X152.76648 Y429.00281 F18000
G1 X152.76648 Y406.56488 F18000
G1 X152.56648 Y406.56488 F18000
G1 X152.56648 Y401.08123 F18000
G1 X152.96648 Y401.08123 F18000
G1 X152.96648 Y300.00016 F18000
G0 Z0
G1 X150.31649 Y300.00016 F4000
G1 Z2 F4000
G1 X150.31649 Y300.00016 F18000
G1 X150.31649 Y401.08123 F18000
G0 Z0
G1 X150.96649 Y401.08123 F4000
G1 Z2 F4000
G1 X150.96649 Y401.08123 F18000
G1 X150.96649 Y406.56488 F18000
G1 X151.26647 Y406.56488 F18000
G1 X151.26647 Y429.00281 F18000
G0 Z0
G1 X150.51649 Y429.00281 F4000
G1 Z2 F4000
G1 X150.51649 Y429.00281 F18000
G1 X150.51649 Y406.56488 F18000
G0 Z0
G1 X149.76647 Y406.56488 F4000
G1 Z2 F4000
G1 X149.76647 Y406.56488 F18000
G1 X149.76647 Y429.00281 F18000
G1 X149.96647 Y429.00281 F18000
G1 X149.8908 Y472.12563 F18000
G0 Z0
G1 X153.0908 Y472.12563 F4000
G1 Z2 F4000
G1 X153.0908 Y472.12563 F18000
G1 X153.0908 Y434.62753 F18000
G0 Z0
G1 X151.49079 Y434.62753 F4000
G1 Z2 F4000
G1 X151.49079 Y434.62753 F18000
G1 X151.49079 Y472.12563 F18000
G1 X151.93079 Y472.12563 F18000
G1 X151.93079 Y507.00334 F18000
G0 Z0
G1 X150.13824 Y507.00334 F4000
G1 Z2 F4000
G1 X150.13824 Y507.00334 F18000
G1 X150.13824 Y550.0003 F18000
G0 Z0
G1 X146.49823 Y550.0003 F4000
G1 Z2 F4000
G1 X146.49823 Y550.0003 F18000
G1 X146.49823 Y434.62753 F18000
G1 X146.32649 Y434.62753 F18000
G1 X146.32649 Y429.00281 F18000
G1 X146.01648 Y429.00281 F18000
G1 X146.01648 Y406.56488 F18000
G1 X146.16647 Y406.56488 F18000
G1 X146.16647 Y401.08123 F18000
G0 Z0
G1 X142.96649 Y401.08123 F4000
G1 Z2 F4000
G1 X142.96649 Y401.08123 F18000
G1 X143.01647 Y429.00281 F18000
G1 X142.68648 Y429.00281 F18000
G1 X142.68648 Y434.62753 F18000
G1 X142.90286 Y434.62753 F18000
G1 X142.90286 Y502.66758 F18000
G0 Z0
G1 X143.65287 Y502.66758 F4000
G1 Z2 F4000
G1 X143.65287 Y502.66758 F18000
G1 X143.65287 Y434.62753 F18000
G0 Z0
G1 X144.40286 Y434.62753 F4000
G1 Z2 F4000
G1 X144.40286 Y434.62753 F18000
G1 X144.40286 Y502.66758 F18000
G0 Z0
G1 X145.15288 Y502.66758 F4000
G1 Z2 F4000
G1 X145.15288 Y502.66758 F18000
G1 X145.15288 Y434.62753 F18000
G0 Z0
G1 X148.29081 Y434.62753 F4000
G1 Z2 F4000
G1 X148.29081 Y434.62753 F18000
G1 X148.29081 Y507.00334 F18000
G0 Z0
G1 X142.44981 Y507.00334 F4000
G1 Z2 F4000
G1 X142.44981 Y507.00334 F18000
G1 X142.5698 Y550.0003 F18000
G0 Z0
G1 X144.16982 Y550.0003 F4000
G1 Z2 F4000
G1 X144.16982 Y550.0003 F18000
G1 X144.16982 Y531.15825 F18000
G0 Z0
G1 X140.96981 Y531.15825 F4000
G1 Z2 F4000
G1 X140.96981 Y531.15825 F18000
G1 X140.96981 Y550.0003 F18000
G0 Z0
G1 X132.96979 Y550.0003 F4000
G1 Z2 F4000
G1 X132.96979 Y550.0003 F18000
G1 X132.96979 Y531.15825 F18000
G0 Z0
G1 X129.76981 Y531.15825 F4000
G1 Z2 F4000
G1 X129.76981 Y531.15825 F18000
G1 X129.76981 Y550.0003 F18000
G0 Z0
G1 X131.3698 Y550.0003 F4000
G1 Z2 F4000
G1 X131.3698 Y550.0003 F18000
G1 X131.52979 Y507.00334 F18000
G0 Z0
G1 X130.75287 Y507.00334 F4000
G1 Z2 F4000
G1 X130.75287 Y507.00334 F18000
G1 X130.75287 Y502.66758 F18000
G1 X130.90286 Y502.66758 F18000
G1 X130.90286 Y434.62753 F18000
G0 Z0
G1 X129.40286 Y434.62753 F4000
G1 Z2 F4000
G1 X129.40286 Y434.62753 F18000
G1 X129.40286 Y502.66758 F18000
G0 Z0
G1 X128.65287 Y502.66758 F4000
G1 Z2 F4000
G1 X128.65287 Y502.66758 F18000
G1 X128.65287 Y434.62753 F18000
G0 Z0
G1 X127.15287 Y434.62753 F4000
G1 Z2 F4000
G1 X127.15287 Y434.62753 F18000
G1 X127.15287 Y502.66758 F18000
G0 Z0
G1 X125.45286 Y507.00334 F4000
G1 Z2 F4000
G1 X125.45286 Y507.00334 F18000
G1 X125.45286 Y502.66758 F18000
G1 X125.65286 Y502.66758 F18000
G1 X125.65286 Y434.62753 F18000
G0 Z0
G1 X124.15286 Y434.62753 F4000
G1 Z2 F4000
G1 X124.15286 Y434.62753 F18000
G1 X124.15286 Y502.66758 F18000
G0 Z0
G1 X123.40284 Y502.66758 F4000
G1 Z2 F4000
G1 X123.40284 Y502.66758 F18000
G1 X123.44425 Y428.92684 F18000
G0 Z0
G1 X125.04427 Y428.92684 F4000
G1 Z2 F4000
G1 X125.04427 Y428.92684 F18000
G1 X125.04427 Y434.62753 F18000
G1 X124.90285 Y434.62753 F18000
G1 X124.90285 Y502.66758 F18000
G0 Z0
G1 X126.40285 Y502.66758 F4000
G1 Z2 F4000
G1 X126.40285 Y502.66758 F18000
G1 X126.40285 Y434.62753 F18000
G1 X126.64426 Y434.62753 F18000
G1 X126.52427 Y406.56488 F18000
G1 X126.6868 Y406.56488 F18000
G1 X126.6868 Y391.88593 F18000
G1 X126.40679 Y391.88593 F18000
G1 X126.40679 Y300.00016 F18000
G0 Z0
G1 X131.76646 Y300.00016 F4000
G1 Z2 F4000
G1 X131.76646 Y300.00016 F18000
G1 X131.65285 Y502.66758 F18000
G0 Z0
G1 X130.15285 Y502.66758 F4000
G1 Z2 F4000
G1 X130.15285 Y502.66758 F18000
G1 X130.15285 Y434.62753 F18000
G1 X129.84426 Y434.62753 F18000
G1 X129.84426 Y428.92684 F18000
G0 Z0
G1 X128.24427 Y428.92684 F4000
G1 Z2 F4000
G1 X128.24427 Y428.92684 F18000
G1 X128.24427 Y434.62753 F18000
G1 X127.90285 Y434.62753 F18000
G1 X127.90285 Y502.66758 F18000
G1 X128.10285 Y502.66758 F18000
G1 X128.10285 Y507.00334 F18000
G1 X127.88978 Y507.00334 F18000
G1 X127.88978 Y531.15825 F18000
G1 X128.16979 Y531.15825 F18000
G1 X128.16979 Y550.0003 F18000
G0 Z0
G1 X126.5698 Y550.0003 F4000
G1 Z2 F4000
G1 X126.5698 Y550.0003 F18000
G1 X126.5698 Y531.15825 F18000
G0 Z0
G0 X0 Y0 Z6
M02 ( End of program, no reset )
